OrgType,OrgCode,LocationName,Cty,Name,Address,Line2,Line3,Line4,Telephone,EmailAddress,ContactName,ediSONInstance,ediSONCompanyCode
General,ORG0001,TWTPE,,INTERNATIONAL ART ENTERPRISE,23 HSIN HU 3RD ROAD,"NEI HU DIST., TAIPEI",,,886 287915888,testingmainguyen+1@gmail.com,CAREY CHEN,,
General,ORG0002,HKHKG,,H.K. STYLE SUPPLY LTD,Bo Fung Gardens 1090 Kings Road,North Point,,,852 28898320,testingmainguyen+2@gmail.com,ANDREW WONG/IRENE WONG,,
General,ORG0003,TWTPE,,HALLEY COMET I/NATIONAL TAIWAN,575  LIN SEN ROAD,TAIPEI,,,8862 5965121,testingmainguyen+3@gmail.com,HELEN YO,,
General,ORG0004,GBMNC,,RAYBURN TRADING CO LTD,90 NORTH STREET,MANCHESTER,,,44161 2141300,testingmainguyen+4@gmail.com,HOWARD GOLDMAN,,
General,ORG0005,HKHKG,,PMS INTERNATIONAL FAR EAST LTD,68 MODY ROAD,TSIM SHA TSUI EAST KOWLOON,,,852 23761886,testingmainguyen+5@gmail.com,ARIEL,,
General,ORG0006,CNKHN,,NANCHANG HUAGAN ARTS & CRAFTS,1370 JINGGANGSHAN RD,"NANCHANG, JIANGXI",,,86 21 58390495,testingmainguyen+6@gmail.com,ZHANG HAO JING,,
General,ORG0007,INICD,,DELTA EXPORTS INTERNATIONAL,293 DHANMILL ROAD,CHATTARPUR PAHADI NEW DELHI,,,91 11 680 0561,testingmainguyen+7@gmail.com,SANJEEU,,
General,ORG0008,CNHGH,,HANGZHOU TIANYUAN PET PRODUCTS,NO 10-1 XINGLING ROAD,XING QIAO TOWN YUHANG DISTRICT HANG,,,86571 28887566,testingmainguyen+8@gmail.com,XUE YUAN CHAU,,
General,ORG0009,CNNGB,,"ZHOUSHAN E-LINE TRADING CO.,LT",126  ALLEY SOUTH CHANGSHOU RD,NINGOB ZHEJIANG,,,86 57488278981,testingmainguyen+9@gmail.com,XU TING,,
General,ORG0010,,,HOLDING DOLCIARIA ITALIANA,S.415 Paulese 26012,Castelleone,,,03 9557 1611,testingmainguyen+10@gmail.com,GERRY VAN AMEYDEN,,
General,ORG0011,TWTPE,,GOLDEN HOLIDAY CO LTD,188 188 RUEIGUANG RD,TAIPEI TAIWAN ROC,,,886000000000,testingmainguyen+11@gmail.com,ARTURO PAN,,
General,ORG0012,IDJKT,,PT CERMAI MAKMUR ABADI INTERNA,ROXY MAS OFFICE BLK D5/18-19,JAKARTA,,,622000000000,testingmainguyen+12@gmail.com,THERESIA,,
General,ORG0013,,,VIETNAM HOUSEWARES CORPORATION,"BINH PHUOC B, BINH CHUAN WARD",BINH DUONG PROVINCE,,,84 2743719719,testingmainguyen+13@gmail.com,JESSICA,,
General,ORG0014,AUFRE,,HSA HERITAGE PTY LTD,46 WARRIDA WAY,MADDINGTON,,,08 9356 2000,testingmainguyen+14@gmail.com,ROCKY,,
General,ORG0015,,,PT. INTI BINTANG MAS PERKASA,NO 25  PLUMBON,CIREBON,,,62231 321531,testingmainguyen+15@gmail.com,SUPARYONO,,
General,ORG0016,HKHKG,,GOLDEN PRIDE ENTERPRISE  (GP ENTERP,67-71  CHATHAM ROAD SOUTH,TSIM SHA TSUI KOWLOON,,,852 2541 1236,testingmainguyen+16@gmail.com,SUSANNA,,
General,ORG0017,HKHKG,,RICHFIELD ENTERPRISES INT.LTD,2-16 FA YUEN ST,MONGKOK,,,03 9558 9688,testingmainguyen+17@gmail.com,BILL YU,,
General,ORG0018,AUMEL,,GARMOND AUSTRALIA OVERSEAS,5/34 CARRICK DRIVE,TULLAMARINE,,,03 9338 0044,testingmainguyen+18@gmail.com,SANJA NISIC/OLIVIA SKINNER,,
General,ORG0019,CNSHA,,LEVEL EFFECT,176  ZHENPING ROAD,SHANGHAI,,,86 2132030497,testingmainguyen+19@gmail.com,SHANE,,
General,ORG0020,HKHKG,,M & LEE TRADING LIMITED,NO 11 CHEUNG YUE STREET,CHEUNG SHA WAN KOWLOON,,,852 3188 2501,testingmainguyen+20@gmail.com,ANNA YUENG/EDITH LAI,,
General,ORG0021,CNCAN,,BEST ELEGANT INTERNATIONAL LTD,NO 530 BIYING ROAD,CHIGANG HAIZHU DISTRICT GUANGZHOU,,,862000000000,testingmainguyen+21@gmail.com,PEARL CAI,,
General,ORG0022,HKHKG,,CHASE ON DEVELOPMENT LIMITED,182-190 TAILIN,HA KWAI CHUNG N,,,852 24273933,testingmainguyen+22@gmail.com,ERIC NG,,
General,ORG0023,CNCAN,,PRO-DESIGN HOMEWARE COMPANY,NO 8 JIAYU STREET BINJIANGDONG ROAD,HAIZHU DISTRICT GUANGZHOU,,,8620 34251481,testingmainguyen+23@gmail.com,STEVEN,,
General,ORG0024,,,OLYMPIA PUBLISHING PTY LTD,19 RAVENSWOOD ROAD,MAIDA VALE,,,08 9479 8000,testingmainguyen+24@gmail.com,MATTHEW CODY,,
General,ORG0025,HKHKG,,BESTWAY (HONG KONG) INTERNATIO,66  MODY ROAD,KOWLOON,,,8621 69135121,testingmainguyen+25@gmail.com,GRANT YANG,,
General,ORG0026,TWTPE,,AROMATE INDUSTRIES CO LTD,497 CHUNG CHENG ROAD,SHING-TIEN CITY TAIPEI,,,8862 86673195,testingmainguyen+26@gmail.com,HENRY,,
General,ORG0027,CNSZX,,UNION GRAND ENTERPRISES LTD,7 LONGSHAN WU ROAD,DISHAN CUN XINSHENG LONGGANG SHENZH,,,8680000000000,testingmainguyen+27@gmail.com,BILL TSENG,,
General,ORG0028,,,WAWI EURO GMBH,IM GEIERSPIEL 2,MUNCHWEILER RHEINLAND-PFALZ,,,49 6395 3060 110,testingmainguyen+28@gmail.com,MICHAEL REICHEL,,
General,ORG0029,CNCAN,,HOMEWARE CHINA CO LTD,NO 730 YINGBIN RD,GUANGZHOU,,,862 039993373,testingmainguyen+29@gmail.com,ANDY DONG,,
General,ORG0030,SGSIN,,SAMAX SINGAPORE,271  BUKIT TIMAH ROAD,SINGAPORE,,,65 6225 5666,testingmainguyen+30@gmail.com,DAVID,,
General,ORG0031,AUSYD,,TEMPO (AUST) PTY LTD OVERSEAS,PO BOX 6041,FRENCHS FOREST,,,02 8977 3705,testingmainguyen+31@gmail.com,CARLO SOLIGO,,
General,ORG0032,CNSZX,,SHENZHEN YIBO ELECTRONIC (DIRECT FA,TIANTOU VILLAGE PINGSHAN TOWN,LONGGANG DISTRICT SHENZHEN,,,755 86001020,testingmainguyen+32@gmail.com,CARRIE,,
General,ORG0033,SGSIN,,UNI BRANDS PTE LTD,LEVEL 8 SOON HOCK BUILDING,SINGAPORE,,,65 6264 4111,testingmainguyen+33@gmail.com,TJ,,
General,ORG0034,CNWUX,,AKAROA ENTERPRISES CO LIMITED DO NO,68 HUICHANG ROAD,HUISHAN INDUSTRY PARK WUXI,,,03 9357 7737,testingmainguyen+34@gmail.com,ABE & TARIK 0419 889 311,,
General,ORG0035,AUMEL,,GLOBAL SOURCE TRADING O/SEAS,444 CITY ROAD,SOUTH MELBOURNE,,,0412 101 200,testingmainguyen+35@gmail.com,DAVID TREGAMBE,,
General,ORG0036,AUMEL,,IG DESIGN GROUP AUSTRALIA PTY LIMIT,121 RAYHUR STREET,CLAYTON SOUTH,,,03 9563 4588,testingmainguyen+36@gmail.com,FRANK PYNAAKER,,
General,ORG0037,HKHKG,,WINNING KEY MANUFACTURING CO,NO 6 HONG MAN ST,CHAI WAN,,,852 2544 0986,testingmainguyen+37@gmail.com,KENNY CHIU,,
General,ORG0038,CNNGB,,PAPER CREATIVE LIMITED,8  LANE 299 GUANGHUA ROAD,NATIONAL HI-TECH ZONE NINGBO,,,86 57483022671,testingmainguyen+38@gmail.com,ANDY ZHANG,,
General,ORG0039,,,GRANT & BOWMAN INC USA (WELLS FARGO,345 NORTH MAPLE DRIVE,BEVERLY HILLS,,,1 311 275 0110,testingmainguyen+39@gmail.com,MYLES BOWMAN,,
General,ORG0040,AUMEL,,BENDIGO WOOLLEN MILLS T/A SALEUTION,4 LANSELL STREET,BENDIGO,,,03 9809 6555,testingmainguyen+40@gmail.com,EARLE SCAHER 0418 356 743,,
General,ORG0041,HKHKG,,FOURPOINT DIRECT EXPORTS,32 HOLLYWOOD ROAD CENTRAL,HONG KONG,,,662 575 3467,testingmainguyen+41@gmail.com,ADRIAN BRUNSDON,,
General,ORG0042,,,FAMOR ITALIA SRL (EUROPE),VIA BOCCHERINI NO 8,SALVIANO LI,,,39058 6864587,testingmainguyen+42@gmail.com,STEFANO BARSOTTI,,
General,ORG0043,HKHKG,,GP ENTERPRISE CHINA,68-74 BONHAM STRAND,SHEUNG WAN,,,852 2541 1236,testingmainguyen+43@gmail.com,SUSANNA,,
General,ORG0044,AUSYD,,INDENT DIRECT AUSTRALIA PTY LT,47-14 NARABANG WAY,BELROSE,,,02 9450 0681,testingmainguyen+44@gmail.com,GEORGE ROSETTENSTEIN,,
General,ORG0045,,,CLASSIC SIGN & DESIGN,CLASSIC HOUSE ROWAN COURT,LEEDS,,,441000000000,testingmainguyen+45@gmail.com,PHIL RAKUSEN,,
General,ORG0046,,,SWEET MAGIC EUROPE FOOD,Z.K TRAKIA 331A,PLOVDIV,,,359 885 636032,testingmainguyen+46@gmail.com,EVELINA BOYADZHIEVA,,
General,ORG0047,,,WHAT MORE UK LIMITED,SHORTEN BROOK WAY ALTHAM BUS P,ENGLAND,,,01282 687030,testingmainguyen+47@gmail.com,TONY GRIMSHAW,,
General,ORG0048,,,Gunz Warenhandels Gmbh,Im Hau 23,Voralberg,,,0043 552363636,testingmainguyen+48@gmail.com,SIMONE GUNZ,,
General,ORG0049,GBMNC,,Rayburn Trading Co Ltd,90 North Street,Manchester,,,44 161 2141304,testingmainguyen+49@gmail.com,wally,,
General,ORG0050,THBKK,,BONDWELL TRADING,95 SUKHUMVIT 501 24,BANGKOK,,,0419 780591,testingmainguyen+50@gmail.com,TREVOR CURTIS,,
General,ORG0051,CNSHA,,HYPER-EXTENSION,NO 555 DONGCHUAN ROAD, SHANGHAI,,,86 021 55328810,testingmainguyen+51@gmail.com,JASON GRANT,,
General,ORG0052,AUSYD,,JOVIC TRADING,UNIT 2B 17-19 PAVESI STREET,SMITHFIELD,,,02 9681 7596,testingmainguyen+52@gmail.com,VICKI CARUANA,,
General,ORG0053,,,COREVISION LIMITED,"11F-4 16, Sec.1, Chang-An E. Road",CHUNGSHAN DISTRICT,,,886000000000,testingmainguyen+53@gmail.com,Terry Lu,,
General,ORG0054,AUMEL,,LICENSED SOCKS AND APPAREL AUSTRALI,16 AGOSTA DRIVE,LAVERTON NORTH,,,03 9311 3300,testingmainguyen+54@gmail.com,SERGE NIEBORSKI,,
General,ORG0055,HKHKG,,BEST MADE TOYS GLOBAL ENTERPRISES L,75 MODY ROAD, TSIMSHATSUI EAST KOWLOON,,,852 2311 0132,testingmainguyen+55@gmail.com,GERRY,,
General,ORG0056,ESAGP,,PERFECT IMPORTERS AND WHOLESALERS,51 BOULDER ROAD,MALAGA,,,0401 150395,testingmainguyen+56@gmail.com,IVAN,,
General,ORG0057,HKHKG,,MATTEL BRANDS,0,HARBOUR CITY TSIMSHATSUI KOWLOON,,,852 3185 5000,testingmainguyen+57@gmail.com,BONNIE LEUNG,,
General,ORG0058,CNSZX,,EA LIVING INTERNATIONAL LIMITED,WEST ZHEN XING ROAD,"FUTIAN DISTRICT, SHENZHEN",,,86 755 83367811,testingmainguyen+58@gmail.com,ALAN CHAN,,
General,ORG0059,CNSZX,,DO NOT USE,29TH FLOOR OVERSEAS F/SHIP BLDG,12 YING CHUN RD LUOHN SHENZHEN,,,86 75525180126,testingmainguyen+59@gmail.com,BILL KOTAMANDIS,,
General,ORG0060,AUMEL,,P & J Giftware Wholesalers Overseas,22 SULLIVAN STREET,MOORABBIN,,,03 9555 2333,testingmainguyen+60@gmail.com,RYAN ZHU,,
General,ORG0061,HKHKG,,JA-RU (HK) LIMITED,11/F INTER-CONTINENTAL PLAZA NO 94,GRANVILLE ROAD KOWLOON,,,852 3602 7000,testingmainguyen+61@gmail.com,QUINLEY CHEN,,
General,ORG0062,AUSYD,,YALE PRIMA PTY LTD (YALE APPL GROUP,20 ST ALBANS ROAD,KINGSGROVE,,,02 9577 1700,testingmainguyen+62@gmail.com,KULDEEP WAHI,,
General,ORG0063,AUSYD,,DATS PTY LTD,1/51 EASTERN CREEK DRIVE,EASTERN CREEK,,,02 9830 3100,testingmainguyen+63@gmail.com,ANTHONY BERTRAM,,
General,ORG0064,AUSYD,,ASIA PACIFIC BRANDS PTY LTD,UNIT 32 159 ARTHUR STREET,HOMEBUSH WEST,,,612 9746 8480,testingmainguyen+64@gmail.com,ARTHUR KARRAS  0419 991 107,,
General,ORG0065,AUMEL,,BENEDIKT IMPORTS PTY LTD,2 KEYS ROAD,MOORABBIN,,,9577 3000,testingmainguyen+65@gmail.com,BRUNO SAVI,,
General,ORG0066,AUMEL,,LICENSING ESSENTIALS,18 HUDSON COURT,KEYSBOROUGH,,,03 9754 0754,testingmainguyen+66@gmail.com,JAMES ECKERSLEY,,
General,ORG0067,AUSYD,,MNB VARIETY IMPORTS PTY LTD,318 HORSLEY ROAD,MILPERRA SYDNEY,,,02 9690 1622,testingmainguyen+67@gmail.com,GIRISH,,
General,ORG0068,AUSYD,,UNCLE BILL'S (AUST) PTY LTD,48B EGERTON STREET,SILVERWATER,,,02 8799 3500,testingmainguyen+68@gmail.com,DAVID GREEN,,
General,ORG0069,AUMEL,,UNIVERSAL GIFT TRADERS OVERSEAS,88 HERALD STREET,CHELTENHAM,,,61 3 9584 4155,testingmainguyen+69@gmail.com,ADAM NORICH,,
General,ORG0070,HKHKG,,AKAROA ENTERPRISES CO LIMITED,151 GLOUCESTER ROAD,WAN CHAI,,,791 6495655,testingmainguyen+70@gmail.com,ABE & TARIK,,
General,ORG0071,AUMEL,,FBA INTERNATIONAL PTY LTD,35-77 EMU ROAD,MAIDSTONE,,,03 9317 9111,testingmainguyen+71@gmail.com,SIMONE CUNNINGHAM,,
General,ORG0072,THBKK,,REGAL BABYCARE PRODUCTS,63 SUKHUMVIT ROAD,KLONGTON NUA WATTANA BANGKOK,,,662 711 6880,testingmainguyen+72@gmail.com,SIRIPORN VILAILERTWATTANA,,
General,ORG0073,AUMEL,,UNITED WHOLESALERS,4-6 DISSIK STREET,CHELTENHAM,,,9555 3211,testingmainguyen+73@gmail.com,WALLY,,
General,ORG0074,AUMEL,,NEW GLOBAL TRADING P/L,4 CROFT STREET,OAKLEIGH,,,03 95632655,testingmainguyen+74@gmail.com,STANLEY SHI,,
General,ORG0075,AUMEL,,ZAK AUSTRALIA PTY LTD (USD) (HOT TO,1808 PRINCESS HWY,CLAYTON,,,03 8561 7333,testingmainguyen+75@gmail.com,BETHANEY HENRY,,
General,ORG0076,HKHKG,,GSM INTERNATIONAL LIMITED,52A SHA TSUI ROAD,TSUEN WAN,,,852 2480 3303,testingmainguyen+76@gmail.com,LOU BARTEMUCCI,,
General,ORG0077,AUMEL,,CDSI PTY LTD,5/121 FRANKSTON DANDENONG ROAD,DANDENONG,,,9702 9177,testingmainguyen+77@gmail.com,HITESH BHATT,,
General,ORG0078,AUMEL,,PARTYWARE PTY LTD,10 UNIVERSITY PLACE,CLAYTON NORTH,,,03 9562 1222,testingmainguyen+78@gmail.com,ANI WONG,,
General,ORG0079,,,SECONDO VERGANI S.P.A,VIA TACITO 7,CREMONA,,,39 0372 434331,testingmainguyen+79@gmail.com,EMANUELE BOZZETTI,,
General,ORG0080,AUMEL,,ICB,333 FLINDERS LANE,MELBOURNE,,,03 9628 2700,testingmainguyen+80@gmail.com,GARY MCADAM,,
General,ORG0081,HKHKG,,PULEO ASIA LIMITED,1 HOK CHEUNG STREET,HUNG HOM KOWLOON,,,,testingmainguyen+81@gmail.com,CHRIS PULEO,,
General,ORG0082,HKHKG,,HL TOYS INTERNATIONAL LTD,67 MODY RD,TSIMSHATSUI EAST KOWLOON,,,852 2366 2282,testingmainguyen+82@gmail.com,MARIA SIN,,
General,ORG0083,AUMEL,,ARC DISTRIBUTION OCEANIA,UNIT 11 127 FAIRBAIRN ROAD,SUNSHINE WEST,,,03 9310 1755,testingmainguyen+83@gmail.com,SHARIAR KHAN,,
General,ORG0084,HKHKG,,B & L CORPORATION,704 CASTLE PEAK ROAD,LAI CHI KOK KLN,,,852 2721 2898,testingmainguyen+84@gmail.com,JACKY MA,,
General,ORG0085,AUFRE,,PORTA CRAFT (ASIA SOURCE AUSTRALIA),210 MADDINGTON ROAD,MADDINGTON,,,08 9493 8000,testingmainguyen+85@gmail.com,BRADLEY ELLIOTT,,
General,ORG0086,HKHKG,,MAX Q HOLDINGS LIMITED,19 ON SUM STREET,SHA TIN,,,0011 852 2369…,testingmainguyen+86@gmail.com,CHRIS RAE,,
General,ORG0087,AUSYD,,MAYVIC PTY LTD,199-203 WOODPARK ROAD,SMITHFIELD,,,,testingmainguyen+87@gmail.com,BENNY PORAT,,
General,ORG0088,AUADL,,SMASH ENTERPRISES,33 REDLAND DRIVE,MITCHEM,,,03 9955 6543,testingmainguyen+88@gmail.com,SIMON COWEN,,
General,ORG0089,AUMEL,,RIBTEX INTERNATIONAL,158-168 BROWNS ROAD,NOBLE PARK,,,03 8793 5000,testingmainguyen+89@gmail.com,MICHAEL MORAN,,
General,ORG0090,AUMEL,,THE DECOR CORPORATION PTY LTD O/SEA,1314 FERNTREE GULLY ROAD,SCORESBY,,,03 9759 2235,testingmainguyen+90@gmail.com,PETER GRAVE,,
General,ORG0091,,,HIGHCREST RETAIL BRANDS,ALBION BUSINESS CENTRE,LEESD ROAD GREENGATES  BRADFORD,,,01274 623480,testingmainguyen+91@gmail.com,CARLA WARREN,,
General,ORG0092,AUMEL,,ALL XTREME PTY LTD (BIBBY FINANCIAL,14 ABBOTTS ROAD,DANDENONG SOUTH,,,86 574 83879936,testingmainguyen+92@gmail.com,WARREN HUNTER  0413 637 013,,
General,ORG0093,HKHKG,,KIDSGRO LIMITED,67 MODY ROAD,TSIMSHATSUI EAST KOWLOON,,,852 2366 2282,testingmainguyen+93@gmail.com,CINDY TSUI,,
General,ORG0094,AUMEL,,JOHN SANDS (AUSTRALIA) LTD,382 WELLINGTON ROAD,MULGRAVE,,,03 9239 3446,testingmainguyen+94@gmail.com,MIKE FERNS,,
General,ORG0095,CNXMN,,GIFTOYS (H.K) CO LTD,ROOM 31ABC BAO FU BLDG NO 819 SOUTH,XIA MEN,,,0086 592 5168968,testingmainguyen+95@gmail.com,JOYCE,,
General,ORG0096,AUMEL,,FAULKNER INDUSTRIES PTY LTD,35-37 CANTERBURY ROAD,BRAESIDE,,,03 9588 0400,testingmainguyen+96@gmail.com,TONY RIDDELL,,
General,ORG0097,HKHKG,,FRESH CONCEPT INDUSTRIES LIMITED,U 1014 26 KAI CHEUNG RODA BLOCK A,KOWLOON BAY,,,,testingmainguyen+97@gmail.com,hoe lui,,
General,ORG0098,HKHKG,,GIANT SOLAR LIGHTING & EQUIPMENT CO,302-308 HENNESSY RD,WANCHAI,,,852 21381638,testingmainguyen+98@gmail.com,H.C LEE,,
General,ORG0099,HKHKG,,FUNVILLE LIMITED,U1117-14 SCIENCE MUSEUM ROAD,TSIM SHA TSUI EAST,,,,testingmainguyen+99@gmail.com,ED MEDICA,,
General,ORG0100,HKHKG,,DICKIE TOYS HONG KONG LTD,21 CANTON ROAD,TSIM SHA TSUI KOWLOON,,,85200000000,testingmainguyen+100@gmail.com,MR MAX THIEL,,
General,ORG0101,CNNGB,,NINGBO ENGINEERING IMP & EXP CO LTD,386 WANGCUN ROAD,NINGBO ZHEIJIANG,,,86 574 28852907,testingmainguyen+101@gmail.com,JESSICA,,
General,ORG0102,,,UPD INC,4507 S MAYWOOD AVE,VERNON CA,,,323 588 8811,testingmainguyen+102@gmail.com,ANA SOTELO,,
General,ORG0103,CNSUD,,CROSSMARK ASIA LIMITED,FUXING ROAD,LELIU TOWN SHUNDE,,,86 1353 8050335,testingmainguyen+103@gmail.com,DONNY CANGELOSI 0416 493355,,
General,ORG0104,CNYIW,,RENOWN (HK) IMPORT AND EXPORT COMPA,674 BEICUN SOUTH ROAD,YIWU CITY ZHEJIANG,,,86 579 85793582,testingmainguyen+104@gmail.com,WILLIAM GUO,,
General,ORG0105,HKHKG,,ATICO INTERNATIONAL (ASIA0 LTD,22-24 HUNG HOM WAN,HUNG HOM,,,,testingmainguyen+105@gmail.com,JEROME .BIRKS,,
General,ORG0106,,,FORTTUNA FOODS INC,5233 CAMINO PLAYA MALAGA,SAN DIEGO CALIFORNIA,,,619 298 3390,testingmainguyen+106@gmail.com,ANTONIO DOMINGUES,,
General,ORG0107,,,THE MAZEL COMPANY,31000 AURORA ROAD,SOLON OHIO,,,440 248 5200,testingmainguyen+107@gmail.com,MARK ERMINE,,
General,ORG0108,AUBNE,,BRAZCO INTERNATIONAL PTY LTD,1069 KINGSFORD SMITH DRIVE,EAGLE FARM,,,07 3868 4220,testingmainguyen+108@gmail.com,SCOTT FISHER,,
General,ORG0109,AUSYD,,GOLDEN WARP PTY LTD,UNIT 1-2 280 NEW LINE ROAD,DURAL,,,02 9651 4277,testingmainguyen+109@gmail.com,CHERYL LOW  0403 547 333,,
General,ORG0110,,,AACHENER PRINTEN-UND SCHOKOLADENFAB,BORCHERSSTRABE 18,AACHEN,,,0049 0 241 89…,testingmainguyen+110@gmail.com,SABINE JUNG,,
General,ORG0111,CNNKG,,NANJING DONGHUA TEDDY TOYS CO LTD,TIANFU YUAN GULOU BLOCK,NANJING JIANGSU PROVINCE,,,86 25 86892107,testingmainguyen+111@gmail.com,SUNJIE (MR),,
General,ORG0112,AUFRE,,AUSTWIDE CONSUMER PRODUCTS,6-22 MAGNET RD,CANNINGVALE,,,08 9455 3200,testingmainguyen+112@gmail.com,GEOFF HEM,,
General,ORG0113,HKHKG,,MULTI LINES INTERNATIONAL CO LTD,19 SHEUNG YUET RD,KOWLOON BAY KOWLOON,,,852 2558 1786,testingmainguyen+113@gmail.com,GARY SINGH,,
General,ORG0114,,,THE BELGIAN CHOCOLATE GROUP NV,GEELSEWEG 72,OLEN,,,32 14258525,testingmainguyen+114@gmail.com,MICHIEL MEIRE,,
General,ORG0115,HKHKG,,CARDINAL GAMES INTERNATIONAL LTD,92 GRANVILLE RD,TST EAST KOWLOON,,,852 23692321,testingmainguyen+115@gmail.com,CHRIS PARAS,,
General,ORG0116,GBBHM,,WALKERS CHOCOLATES LTD,BRICKFIELD ROAD,WEST MIDLANDS BIRMINGHAM,,,44 121 244 1600,testingmainguyen+116@gmail.com,DANIEL DOHERTY,,
General,ORG0117,AUMEL,,NMC INTERNATIONAL,43 REDESDALE ROAD,KYNETON,,,03 5421 1500,testingmainguyen+117@gmail.com,KARL BARKER,,
General,ORG0118,HKHKG,,CPL GLOBAL SOURCING LIMITED,61 MODY ROAD,TSIM SHA TSUI KOWLOON,,,852 3752 8001,testingmainguyen+118@gmail.com,LARA CEROLINI,,
General,ORG0119,,,PANSY ACCESSORIES CORPORATION,350 IRMA ST MARICK SUBDIVISION,CAINTA RIZAL,,,632 6569644,testingmainguyen+119@gmail.com,BENILDA MANALO,,
General,ORG0120,CNCAN,,"GUANGZHOU WICO INDUSTRIAL CO., LIMI",111 BAI YUN ROAD,YUE XIU DISTRICT GUANGZHOU,,,20 8329 2518,testingmainguyen+120@gmail.com,WILLIAM CHOW,,
General,ORG0121,GBMNC,,IDEAS MARKETING LTD (BIBBY FACTORS),253 HEYWOOD ROAD,PRESTWICH MANCHESTER,,,44 01617731902,testingmainguyen+121@gmail.com,LAUREN DAVIES,,
General,ORG0122,,,PROFUSION COSMETICS CORP (YIWU SUNR,2841 S RESERVIOR ST,CA,,,909 591 5678,testingmainguyen+122@gmail.com,SHARON WANG,,
General,ORG0123,CATOR,,CLT INTERNATIONAL (MORRISON FINANCI,2535 GERRARD STREET EAST,TORONTO,,,416 686 1140,testingmainguyen+123@gmail.com,HOWARD LINDS,,
General,ORG0124,,,HOSLEY INDIA PVT LTD,PHASE EXT,NOIDA UTTAR PRADESH,,,91 120 2562800,testingmainguyen+124@gmail.com,ANITHA SAJEEV,,
General,ORG0125,AUMEL,,ALMOR AGENCIES,338 ST KILDA STREET,BRIGHTON,,,0414 999 197,testingmainguyen+125@gmail.com,MARTIN ZLOTNICK,,
General,ORG0126,,,UCC DISTRIBUTING INC,1445 ENGINEER STREET,VISTA CALIFORNIA,,,760 431 4794,testingmainguyen+126@gmail.com,JOHN OROZCO,,
General,ORG0127,AUMEL,,CDB GOLDAIR PTY LTD,49 MCGREGOR'S DRIVE,KEILOR PARK,,,61 03 9336 4423,testingmainguyen+127@gmail.com,CHRIS BREMNER,,
General,ORG0128,HKHKG,,RMS INTERNATIONAL (HONG KONG) LTD,67 MODY ROAD,TSIM SHA TSUI KOWLOON,,,852 2954 5638,testingmainguyen+128@gmail.com,KEN LEUNG,,
General,ORG0129,AUMEL,,WALL ART WHOLESALERS PTY LTD,1A ROPER STREET,MOORABBIN,,,,testingmainguyen+129@gmail.com,RORY WEINER,,
General,ORG0130,HKHKG,,STRONGER PLASTIC CO LTD,168 TEXACO ROAD,TSUEN WAN NT,,,852 2615 1898,testingmainguyen+130@gmail.com,ERIC NG,,
General,ORG0131,CNNKG,,ARC GLASSWARE NANJING COMPANY LTD,88 XIANXIN ROAD,NANJING,,,613 9310 1755,testingmainguyen+131@gmail.com,SHAHRIAR KHAN,,
General,ORG0132,AUMEL,,PLAYGRO PTY LTD (INC NUBY),49-51 SUNMORE CLOSE,HEATHERTON,,,03 8558 2000,testingmainguyen+132@gmail.com,TOULA,,
General,ORG0133,AUMEL,,STUDIO KIDS PTY LTD,22 SINGLETON STREET,COLLINGWOOD,,,03 9419 9797,testingmainguyen+133@gmail.com,ALI FLETCHER,,
General,ORG0134,HKHKG,,KOWLING CO LTD,46/48 WYNDHAM STREET,CENTRAL HONG KONG,,,852 2733 1133,testingmainguyen+134@gmail.com,SANDY CHAN,,
General,ORG0135,AUMEL,,GFA (AUST) PTY LTD,61 SUNMORE CLOSE,HEATHERTON,,,03 9551 4666,testingmainguyen+135@gmail.com,AMANDA AITKEN,,
General,ORG0136,HKHKG,,MAIORA GROUP LIMITED,ROOM 606 6/F YALE IND CENTRE,61-63 AU PUI WAN STREET SHATIN,,,852 3428 2820,testingmainguyen+136@gmail.com,ELLEN,,
General,ORG0137,AUMEL,,JEMARK IMPORTS P/T OVERSEAS,1 TABBITA STREET,MOORABBIN,,,03 9532 5562,testingmainguyen+137@gmail.com,DANIEL PERLSTEIN,,
General,ORG0138,AUMEL,,BRANDWORX PTY LTD,PO BOX 631,ROSANNA,,,61 4172 57353,testingmainguyen+138@gmail.com,MAX SMITH,,
General,ORG0139,,,TREE TOYS CORPORATION,8TH FLOOR NO 16 LANE 12 1 NEIHU ROA,NEIHU,,,886 2 2797 8086,testingmainguyen+139@gmail.com,NANCY LI,,
General,ORG0140,AUMEL,,SHAMROCK INTERNATIONAL,21-23 JOSEPH STREET,BLACKBURN NORTH,,,03 9895 4300,testingmainguyen+140@gmail.com,ALLEN DAVIS,,
General,ORG0141,TWTPE,,QUESTWOOD CORPORATION (EVER TOWER),58 SEC 3 CHENGDE ROAD,TAIPEI,,,886 225 945817,testingmainguyen+141@gmail.com,JONATHAN HWANG,,
General,ORG0142,SGSIN,,ASPAIL SINGAPORE,629 ARJUNIEO ROAD CITITECH IND BLDG,SINGAPORE,,,65 6747 7090,testingmainguyen+142@gmail.com,T J CHIA,,
General,ORG0143,HKHKG,,GAIN TOTAL LIMITED,489-491 CASTL PEAKL RD,CHENG SH KOWLOON,,,852 2117 0518,testingmainguyen+143@gmail.com,SAM WONG,,
General,ORG0144,,,JIAXING JALY COMMODITIES CO LTD,605 CHANGZU ROAD,NANHU DISTRICT JIAXING ZHEJIANG,,,0412 874 682,testingmainguyen+144@gmail.com,CON TSINTARAKIS 0412 874 682,,
General,ORG0145,,,THE LEARNING JOURNEY INTERNATIONAL,24435 N 20TH DRIVE,PHOENIX,,,602 767 1115,testingmainguyen+145@gmail.com,CINDY WILSON,,
General,ORG0146,GBMNC,,STOCKS (MANCHESTER) LTD,VILLAGE WAY,TRAFFORD PARK MANCHESTER,,,0161 855 6999,testingmainguyen+146@gmail.com,JOANNE ANDERSON,,
General,ORG0147,HKHKG,,MOTORMAX TOY FACTORY LIMITED,7/F TOWER 1 STH SEAS CENTRE 75 MODY,TSIMSHATSUI EAST KOWLOON,,,852 2722 8000,testingmainguyen+147@gmail.com,ERIC LAI,,
General,ORG0148,,,VAN CAEM EUROPE BV,ADMIRAAL BANCKERTWEG 12,ZUID,,,31 715219513,testingmainguyen+148@gmail.com,THOMAS HOVING,,
General,ORG0149,,,ZHUJI MORETEX SOCKS CO LTD,11 LIANHE ROAD,ZHUJI CITY ZHEJIANG,,,86 575 87135881,testingmainguyen+149@gmail.com,TONY HABIB,,
General,ORG0150,HKHKG,,ARUNA HOMEWARE (HONG KONG) LIMITED,6 HOW MING STREET,TWUN TONG KOWLOON,,,852 36955030,testingmainguyen+150@gmail.com,SULIN CHAN,,
General,ORG0151,VNSGN,,HAPROSIMEX SAIGON,77-79 PHO DUC CHINH STREET,DIST 1 HO CHI MINH CITY,,,84 902 418433,testingmainguyen+151@gmail.com,LE THI THU THUY (MARIE),,
General,ORG0152,VNSGN,,DAI DONG TIEN CORPORATION,216 TAN THANH WARD,HO CHI MIN CITY,,,,testingmainguyen+152@gmail.com,MS THUY,,
General,ORG0153,,,MCPHERSONS HOUSEWARES,105  VANESSA STREET,KINGSGROVE,,,02 9370 8000,testingmainguyen+153@gmail.com,natalie ryan,,
General,ORG0154,AUMEL,,GIDEON SERVICES PTY LTD OVERSEAS,22 KENILWORTH CRESCENT,GLEN WAVERLEY,,,03 9803 3703,testingmainguyen+154@gmail.com,jo sujana  0488 337730,,
General,ORG0155,HKHKG,,CREATIVE CONCEPTS MANUFACTURING LTD,2G HOK YUEN STREET, HUNG KOWLOON,,,2773 6401,testingmainguyen+155@gmail.com,SHAZIA BIBI,,
General,ORG0156,,,LOUMET TOYS PTY LTD,7 STEPNEY STREET,STEPNEY,,,08 8363 0799,testingmainguyen+156@gmail.com,JOSEPH SPAGNOLETTI,,
General,ORG0157,,,SODAKING AUSTRALIA,3 MCLELLAN STREET,BAYSWATER,,,0421 997 496,testingmainguyen+157@gmail.com,KEVIN DOHERTY,,
General,ORG0158,,,KIDZWIZ PTY LTD,8 THORNTON CRES,MITCHAM,,,414000000,testingmainguyen+158@gmail.com,MEYER DIAMOND,,
General,ORG0159,,,SOCADO SRL,VIA SPAGNA 20,VILLAFRANCA DI VERONIA,,,03 9555 2077,testingmainguyen+159@gmail.com,GERRY VAN AMEYDEN,,
General,ORG0160,,,LYPRODAN A/S,BERNSTORFFSVEJ 130 DK2900,HELLERUP DENMARK,,,45 3990 8818,testingmainguyen+160@gmail.com,MS EMILY,,
General,ORG0161,CNCAN,,RAYLEE INTERNATIONAL CO LTD,168 NANTAI ROAD,GUANGZHOU,,,86 20 84344889,testingmainguyen+161@gmail.com,LAURA KEMP,,
General,ORG0162,TWTPE,,DELTAIC INTERNATIONAL CO LTD,79  SEC 2 SHUANG-SHI ROAD,BANQIAO DISTRICT NEW TAPEI CITY,,,886 2 2251 7070,testingmainguyen+162@gmail.com,ARTHUR CHIU,,
General,ORG0163,AUMEL,,ARLEC AUSTRALIA PTY LTD,31-41 JOSEPH STREET,BLACKBURN NORTH,,,03 9982 5000,testingmainguyen+163@gmail.com,LIZ SPENCER,,
General,ORG0164,,,BIG MOUTH INC,655 WINDING BROOK DVE,GLASTONBURY,,,860 659 8304,testingmainguyen+164@gmail.com,JEFFREY ELSNER,,
General,ORG0165,AUMEL,,TOYNETWORX,4/87 NEWLANDS ROAD,RESERVOIR,,,03 9460 2277,testingmainguyen+165@gmail.com,BEN BLISS,,
General,ORG0166,HKHKG,,MEGA BRIGHT INT(PJ SAS TRADING),UNIT 11 11/F BLOCK A HI TECH IND CE,PAK TIN PAR STREET TSUEN WAN,,,61 2 9602 5444,testingmainguyen+166@gmail.com,LUKE,,
General,ORG0167,VNSGN,,LE TRAN PRODUCING-TRADING & SERVICE,39/25-27 NGUYEN CUU DAM ST,TAN PHU DIST HO CHI MINH CITY,,,84 8 3713 8888,testingmainguyen+167@gmail.com,MR HUNG,,
General,ORG0168,VNSGN,,SUNRISE POTTERY CO LTD,280B8 LUONG DINH CUA AN PHU DISTRIC,HO CHI MIN CITY,,,84 613 954 357,testingmainguyen+168@gmail.com,THUY TRINH,,
General,ORG0169,,,M/S LAAJ INTERNATIONAL,A-2 NARAINA INDUSTRIAL AERA,PHASE 1 NEW DELHI,,,011 4141 8661,testingmainguyen+169@gmail.com,RAHUL AGGARWAL,,
General,ORG0170,CNNGB,,NINGBO POWERR PLASTIC PRODUCTS CO L,CHONGSHOU TOWN,CIXI CITY,,,0086 13605888226,testingmainguyen+170@gmail.com,MR JOHNSON,,
General,ORG0171,VNSGN,,FMCG VIET CO LTD,203/9 TRUC STR WARD 13,BINH THANH DIST HO CHI MIN CITY,,,84 35533480,testingmainguyen+171@gmail.com,MR CLARK,,
General,ORG0172,,,IMPACT POSTERS(IMPACT ROCK MERCHAND,1/9 PIONEER AVENUE,THORNLEIGH,,,02 9481 7344,testingmainguyen+172@gmail.com,COLIN WISE,,
General,ORG0173,CNNGB,,THE GRANDVIEW INDUSTRY CO LTD,555 SOUTH TIANTONG RD,YINZHOU DIST NINGBO CI,,,86 574 89057759,testingmainguyen+173@gmail.com,JASON,,
General,ORG0174,AUMEL,,MJM AUSTRALIA IMPORTS (OS),27 CHRISTENSEN STREET,CHELTENHAM,,,03 9555 3833,testingmainguyen+174@gmail.com,JACQUES LEVY,,
General,ORG0175,USNYC,,MACKSON INC D/B/A/SHE'S COOL,1407 BROADWAY SUITE 2116B,"NEW YORK, NY",,,212-398-2515,testingmainguyen+175@gmail.com,AMIT LAMBA,,
General,ORG0176,,,NESTRADE S.A.,Rue Entre-deux-Villes 12,"CH-1814 La Tour-de-Peilz, Switzerla",,,41200000000,testingmainguyen+176@gmail.com,Alex I,,
General,ORG0177,HKHKG,,GOLDEN FLOWER IND. CO. LTD,491 CATLE PEAK RD,KOWLOON HONG KONG,,,852 27435418,testingmainguyen+177@gmail.com,ALICE,,
General,ORG0178,,,BINTEX HOLDINGS P/L T/A LOFTEX AUST,1 Talavera Road,NORTH RYDE,,,02 9888 6688,testingmainguyen+178@gmail.com,PETER ROBERTS,,
General,ORG0179,CNSXG,,SHAOXING SHAFEIER CRAFTS CO LTD,ZONGHENG BRANCH ROAD,SHAOXING CITY ZHEIJIANG,,,86 575 89105172,testingmainguyen+179@gmail.com,ELLERY,,
General,ORG0180,,,HAUNUI INTERNATIONAL LIMITED,681B ROSEBANK ROAD,AVONDALE,,,6500000000,testingmainguyen+180@gmail.com,EMMA SHAW,,
General,ORG0181,AUMEL,,WHOLESALE WAREHOUSE PTY LTD,17 DISSIK STREET,CHELTENHAM,,,03 9555 9884,testingmainguyen+181@gmail.com,BRAD KRUSNOSTEIN,,
General,ORG0182,AUMEL,,ROSSDALE PTY LTD,351-353 WARRIGAL ROAD,CHELTENHAM,,,03 9583 4411,testingmainguyen+182@gmail.com,TIFFANY STEPHENS,,
General,ORG0183,HKHKG,,KIMM & MILLER (ASIA) LIMITED,3 HI YIP STREET,YUEN LONG N.T,,,852 26199600,testingmainguyen+183@gmail.com,TRISH MUSCAT 0409 568 975,,
General,ORG0184,AUMEL,,HINKLER BOOKS PTY LTD,45-55 FAIRCHILD STREET,HEATHERTON,,,03 9552 1333,testingmainguyen+184@gmail.com,NADIKA GARBER,,
General,ORG0185,CNHUI,,IDEAL LOCK CO LTD,DONGFENG VILLAGE,HUIZHOU CITY GUANGDONG PROVINCE,,,86 752 6516088,testingmainguyen+185@gmail.com,ERIC NG,,
General,ORG0186,AUMEL,,WILLIAM A MCNEIL AND CO PTY LTD,400 FOLEYS ROAD,DERRIMUT,,,03 8390 3333,testingmainguyen+186@gmail.com,VICKI GREEN,,
General,ORG0187,AUMEL,,JTC IMPORT EXPORT PTY LTD,98 SOUTH PARK DRIVE,DANDENONG SOUTH,,,03 9532 5100,testingmainguyen+187@gmail.com,MATTHEW BROOK,,
General,ORG0188,VNSGN,,BA NHAT RATTAN BAMBOO HIGH GRADE CO,169-171  XO VIET NGHE TINH W 17 BIN,HO CHI MIN CITY,,,08 3898 0916,testingmainguyen+188@gmail.com,NGUYEN DUY TRUNG,,
General,ORG0189,,,STUDIO NOVA,589 THE KINGSWAY,MIRANDA,,,02 9531 2411,testingmainguyen+189@gmail.com,STEPHEN CLARK,,
General,ORG0190,HKHKG,,MAX FORTUNE INDUSTRIAL LIMITED,32/F HING WAI CENTRE 7 TIN WAN PRAY,ABERDEEN,,,852 2518 7600,testingmainguyen+190@gmail.com,JENNIFER AU YEUNG,,
General,ORG0191,CNHGH,,HAINAN ZHEJING FOREIGN TRADE CO LTD,200 SHIMAN ST,QIANJIANG NEW TOWN HANGZHOU,,,0086 186 6712...,testingmainguyen+191@gmail.com,JACKY CHEN,,
General,ORG0192,HKHKG,,FP GLASSWARE INDUSTRY,3 EUNG YUET ROAD,KOWLOON,,,852 2751 9308,testingmainguyen+192@gmail.com,WILLIAM LAU,,
General,ORG0193,CNLNH,,"TAIZHOU XINHUALIAN PLASTIC CO.,LTD",SHANGJIN INDUSTRIALPARK,LINHAI TAIZHOU ZHEJIANG,,,86 576 85696777,testingmainguyen+193@gmail.com,SOPHIA CHEN,,
General,ORG0194,,,"HOMCO HOUSEHOLD PRODUCTS CO., LTD",DONGGANG EAST STREET,JINHUA CITY,,,0579 8912 5065,testingmainguyen+194@gmail.com,JASON,,
General,ORG0195,CNHGH,,HANGZHOU ZIELE TRADING CO LTD,ROOM 0810 GUANG LI BLDG 136 QING CH,HANGZHOU CITY,,,0086 0571 872...,testingmainguyen+195@gmail.com,DANIEL,,
General,ORG0196,,,TONTINE GROUP (JOHN COTTON AUSTRALI,144-168 NATIONAL BLVD,CAMPBELLFIELD,,,1800 725 500,testingmainguyen+196@gmail.com,SCOTT GICK,,
General,ORG0197,AUMEL,,HUNTER PRODUCTS PTY LTD,424 WARRIGUL ROAD,MOORABBIN,,,03 9262 2900,testingmainguyen+197@gmail.com,DAVID PEEL,,
General,ORG0198,,,UNITEX INTERNATIONAL,53 BOURKE ROAD,ALEXANDRIA,,,02 9669 6317,testingmainguyen+198@gmail.com,AFSHIN NEJADIRAN,,
General,ORG0199,CNSHA,,ALVIN CULTURAL AND SPORT(ALVIN INTE,1001-1002 1018 10TH FLOORT BDG 3 GR,58 EAST  XINJIAN ROAD SHANGHAI,,,03 9827 5179,testingmainguyen+199@gmail.com,PETER YAN,,
General,ORG0200,CNHGH,,ZHEJIANG ARTS & CRAFTS IMP & EXP CO,12N  ZHONGSHAN ROAD,HANGZHOU,,,86 571 8568 2918,testingmainguyen+200@gmail.com,FANG JIONG,,
General,ORG0201,VNSGN,,HACA CO LTD,64/22 LE QUANG DINH WARD,14 BINH THANH DIST HO CHI MIN CITY,,,848 35107 100,testingmainguyen+201@gmail.com,HOANG XUAN PHUONG,,
General,ORG0202,,,GARLAND SALES INC (MILBERG FACTORS,1800 ANTIOCH ROAD,DALTON GA,,,800 524 0361,testingmainguyen+202@gmail.com,CHRIS LATOUR,,
General,ORG0203,HKHKG,,PERPETUAL PLAY GROUP LIMITED,44 WYNDHAM STREET,HONG KONG,,,03 8807 9994,testingmainguyen+203@gmail.com,GIL LOCKHART,,
General,ORG0204,AUMEL,,GENEX AUSTRALIA PTY LTD,2 RAYNES CLOSE,CARRUM DOWNS,,,03 9532 0624,testingmainguyen+204@gmail.com,DANIEL HOOPER,,
General,ORG0205,HKHKG,,SWANTEX ASIA LIMITED,359 & 361 QUEENS RD CENTRAL,SHEUNG WAN,,,852 2721 9088,testingmainguyen+205@gmail.com,ANGIE LIU,,
General,ORG0206,TWTPE,,TAIWAN POWCO LTD,15FL NO 129 FU HSIN SOUTH ROAD SEC,TAIPEI TAIWAN,,,886 2 27312167,testingmainguyen+206@gmail.com,PETER RICHARDSON,,
General,ORG0207,THBKK,,FOURPOINT DIRECT EXPORTS LTD,15/2 CHAENGWATTANA RD,TUNGSONGHONG LAKSI BANGKOK,,,662 982 5372,testingmainguyen+207@gmail.com,ADRIAN STEPHEN BRUNSDON,,
General,ORG0208,CNDGG,,OCEAN HARVEST SPORTSWEAR CO LTD,507 YINGBIN ROAD,TANGXIA TOWN DONGGUAN GUANGDONG PRO,,,0769 81282772,testingmainguyen+208@gmail.com,MARTIN EDEN HALL,,
General,ORG0209,USNYC,,SENTRY INDUSTRIES INC,ONE BRIDGE STREET,NEW YORK,,,18500000000,testingmainguyen+209@gmail.com,PEETU MELWANI,,
General,ORG0210,CNNGB,,NINGBO HOME DOLLAR IMP & EXP CORP,69 GUANGYUAN ROAD,JIANGBEI DISTRICT NINGBO,,,86 574 88195267,testingmainguyen+210@gmail.com,LESLIE PING,,
General,ORG0211,VNSGN,,HIEP THANH PLASTIC TRADING MANIFACT,48-49-50 BAI SAY STREET DISCT 6,HO CHI MIN CITY,,,848 385 36240,testingmainguyen+211@gmail.com,VO THI TO NGUYEN,,
General,ORG0212,CNNGB,,HENLEDAR CO LTD,58 QIZHA STREET,NINGBO,,,0086 574 8729...,testingmainguyen+212@gmail.com,MENG CHUN,,
General,ORG0213,HKHKG,,HUGFUN INTERNATIONAL HONGKONG LIMIT,18/F GINZA SQUARE 565-567 NATHAN RO,MONGKOK KOWLOON,,,8657 4236 67090,testingmainguyen+213@gmail.com,LISA,,
General,ORG0214,CNDLC,,DALIAN TALENT GIFT CO. LTD,TAIPING TOWN,PULANDIAN COUNTY DALIAN,,,0086 411 8254...,testingmainguyen+214@gmail.com,AVA ZHANG,,
General,ORG0215,AUMEL,,POWER DC PTY LTD,11 VENTURE WAY,BRAESIDE,,,03 9580 7877,testingmainguyen+215@gmail.com,tim korren,,
General,ORG0216,CNNGB,,NINGBO YOHOO INDUSTRIAL LIMITED,NO 6 SHIYUAN ROAD,YINZHOU,,,86 574 2787 3206,testingmainguyen+216@gmail.com,JANE XU,,
General,ORG0217,,,TONGLING BIOLOGIC TECHNOLOGY CO LTD,NO 528 DIZHI AVE SHIZISHAN ZONE,TONGLING ANHUI,,,8.66E+11,testingmainguyen+217@gmail.com,AMANDA,,
General,ORG0218,AUMEL,,FUTURE BRAND PRODUCTS P/L,492-494 RACECOURSE ROAD,FLEMINGTON,,,03 9676 9444,testingmainguyen+218@gmail.com,STEVE LORENZETTI,,
General,ORG0219,AUSYD,,HARPERCOLLINS PUBLISHERS AUSTRALIA,201 ELIZABETH STREET,SYDNEY,,,02 9952 5000,testingmainguyen+219@gmail.com,GUY BENSAUL,,
General,ORG0220,CNNGB,,NINGBO JOHNSHEN STATTIONERY CO LTD,111-131 DINGXIANG ROAD,JIANGDONG ZONE NINGBO,,,86 574 27833333,testingmainguyen+220@gmail.com,YOKA YANG,,
General,ORG0221,HKHKG,,GOLIATH FAR EAST LIMITED,1 SCIENCE MUSEUM ROAD,TSIMSHATSUI EAST KOWLOON,,,852 2363 4554,testingmainguyen+221@gmail.com,ANDREW PANAGOPOULOS,,
General,ORG0222,HKHKG,,MONARCH INTERNATIONAL LTD,0,HONK KONG,,,852 2367 2688,testingmainguyen+222@gmail.com,CALLAN O'HARA,,
General,ORG0223,CNSZX,,H & H ASIA LTD,4013 SHENNAN ROAD,SHENZHEN,,,86 755 83026780,testingmainguyen+223@gmail.com,MARK DUFFY,,
General,ORG0224,CNNGB,,NINGBO MASCUBE IMP. & EXP. CORP.,58 DAGANG ROAD,NETD BEILUN  NINGBO,,,86 574 86802714,testingmainguyen+224@gmail.com,JESSIE WO,,
General,ORG0225,AUMEL,,AUSTRALAISIAN BULK FOODS OVERSEAS,348 SOUTH ROAD,HAMPTON EAST,,,03 9555 2077,testingmainguyen+225@gmail.com,GREG LAMB,,
General,ORG0226,AUMEL,,CAPRICE AUSTRALIA PTY LTD OVERSEAS,31-49 EASTERN ROAD,SOUTH MELBOURNE,,,03 9922 2500,testingmainguyen+226@gmail.com,JOHN TOMASELLI,,
General,ORG0227,CNSZX,,PROCHARGE INTERNATIONAL LTD,FUHUA YI ROAD,FUTIAN CENTRAL ZONE SHENZHEN,,,8.68E+12,testingmainguyen+227@gmail.com,JAMES,,
General,ORG0228,,,DANDONG EVERLIGHT CANDLE INDUSTRY C,15 DAN SHEN ROAD,DANDONG LIAONING,,,86 415 4155358,testingmainguyen+228@gmail.com,AYAL BEER,,
General,ORG0229,CNNGB,,NINGBO RAVO IMPORT & EXPORT CO LTD,188 CHANGYANG ROAD,JIANG BEI DISTRICT NINGBO,,,86 574 83096538,testingmainguyen+229@gmail.com,FLORA WANG,,
General,ORG0230,CNSZX,,"SHENZHEN GROUND ENTERPRISES CO.,LTD",MINGYUEHUADU GONGHE IND ROAD,XIXIANG BAO'AN DISTRICT SHENZHEN,,,0086 755 2303...,testingmainguyen+230@gmail.com,DAVID GE,,
General,ORG0231,CNSZX,,EUROSUN INTERNATIONAL LTD.,518 IDEA LAND BAOYUAN RD,BAO'AN SHENZHEN,,,86 755 2769 4537,testingmainguyen+231@gmail.com,JAMES,,
General,ORG0232,HKHKG,,PAMSON PACIFIC ENTERPRISES CORP. LT,114 KING FUK ST,SAN PO KONG KOWLOON,,,852 2321 0933,testingmainguyen+232@gmail.com,NICOLE,,
General,ORG0233,HKHKG,,SIMBA-TOYS (HONG KONG) LTD.,21 CANTON ROAD,TSIMSHATSUI KOWLOON,,,852 2367 2088,testingmainguyen+233@gmail.com,ELING POON,,
General,ORG0234,,,LAGO GROUP SPA,VIA ROMA 24,GALLIERA VENETA PADOVA,,,3904 994 75511,testingmainguyen+234@gmail.com,UMBERTO TONIOLO,,
General,ORG0235,,,KINNERTON CONFECTIONERY AUST P/L UK,845 PACIFIC HIGHWAY,CHATSWOOD,,,02 9413 3149,testingmainguyen+235@gmail.com,DAVID KRUHAK,,
General,ORG0236,CNNGB,,NINGBO B AND B INTERNATIONAL TRADIN,21 HUALOUXIANG,NINGBO,,,0574 870 29963,testingmainguyen+236@gmail.com,PETER,,
General,ORG0237,HKHKG,,FPL GROUP LIMITED,164 WAI YIP STREET,KWUN TONG KOWLOON,,,234 50221,testingmainguyen+237@gmail.com,ADRIAN RILEY,,
General,ORG0238,AUMEL,,TANGO GROUP INTERNATIONAL,256 WICKHAM ROAD,MOORABBIN,,,03 9555 2523,testingmainguyen+238@gmail.com,SAUL,,
General,ORG0239,CNNGB,,NINGBO BEST SOLUTIONS IMPORT AND EX,128 NORTH JIEFANG ROAD,NINGBO,,,86 0574 8725 ...,testingmainguyen+239@gmail.com,GLORIA,,
General,ORG0240,,,ALFRED FRANKS & BARTLETT PIC,UNIT 2 HATFIELD ROAD,ALBAN PARK ST ALBANS HERTS,,,44 1727 833877,testingmainguyen+240@gmail.com,JACKIE MCEWAN,,
General,ORG0241,AUMEL,,UNIVERSAL ENTERPRISES,7 CUBITT STREET,CREMORNE,,,03 9421 4511,testingmainguyen+241@gmail.com,MARIA RICHARDSON,,
General,ORG0242,AUMEL,,GIFT PACKAGING & ACCESSORIES P/L,14-16 EILEEN ROAD,CLAYTON SOUTH,,,03 9546 1188,testingmainguyen+242@gmail.com,MARY BAKER,,
General,ORG0243,HKHKG,,HOT SHOTS INTERNATIONAL LIMITED,4 HILLWOOD ROAD,TSIM SHA TSUI,,,03 9357 5510,testingmainguyen+243@gmail.com,SCOTT EDGLEY,,
General,ORG0244,CNNGB,,"BINBIN ARTS & CRAFTS CO.,LTD",789 TONGHUI ROAD,JIANGBEI DISTRICT NINGBO,,,86 574 8774 1328,testingmainguyen+244@gmail.com,NOXN,,
General,ORG0245,HKHKG,,RED STONE GROUP (HONG KONG) LIMITED,17 CANTON ROAD,TST KOWLOON,,,86 755 8523 8473,testingmainguyen+245@gmail.com,PAUL LUC,,
General,ORG0246,HKHKG,,LIFESTYLE BRANDS INTERNATIONAL (HK),6 ON PING ROAD,SIU LEK YUEN,,,613 8793 0000,testingmainguyen+246@gmail.com,REBECCA MCLEAN,,
General,ORG0247,AUFRE,,LUXE BRANDS GROUP PTY LTD,9/1 WILLIAM STREET,PERTH,,,08 9443 5115,testingmainguyen+247@gmail.com,TALENA MAES,,
General,ORG0248,CNSWA,,SHANTOU YESWILL TOYS CO. LTD,END OF DEZHEN ROAD,CHENGHAI SHANTOU GUANGDONG,,,86 754 85838481,testingmainguyen+248@gmail.com,CANDY GRABBER PL,,
General,ORG0249,CNFOC,,"FUZHOU BESTONE COLLECTION CO., LTD",YANGQIAO ROAD,"FUZHOU, FUJIAN",,,86 591 8782 8058,testingmainguyen+249@gmail.com,POWER HUANG,,
General,ORG0250,,,JIGSAW ANZ PTY LTD,19/33 MACMAHON STREET,HURSTVILLE,,,61 02 9586 1036,testingmainguyen+250@gmail.com,SIMON DIMASCIO,,
General,ORG0251,CNNGB,,MEICHENG HOLDINGS LTD,655 THE EXTENSION SECT OF LIANFENG,HAISHU DISTRICT NINGBO,,,86 574 5533 2099,testingmainguyen+251@gmail.com,ELLA LIU,,
General,ORG0252,CNDGG,,"CHAOZHOU LOVING HOME PORCELAIN CO.,",CHENGONGWEI AREA NANMEN VILLAGE,CHAOZHOU CITY GUANGDONG,,,86 0768 689 4458,testingmainguyen+252@gmail.com,SALLY,,
General,ORG0253,CNJHA,,"ZHEJIANG SOODODO STATIONERY CO., LT",588 MINGLI STREET,JIN DONG ZONE JIN HUA ZHEJIANG,,,0579 85977809,testingmainguyen+253@gmail.com,NANCY FANG,,
General,ORG0254,NZAKL,,BLUEBIRD FOODS LTD,124 WIRI STATION ROAD,MANUKAU AUCKLAND,,,64 9262 8800,testingmainguyen+254@gmail.com,LEENA CHANDAPPA,,
General,ORG0255,CNSHA,,SUGAR AND SPICE TEXTILES,28 DANBA ROAD,SHANGHAI,,,832 1635 39056,testingmainguyen+255@gmail.com,ANDREA MATTHEWS,,
General,ORG0256,HKHKG,,HOLITON COMPANY LIMITED,42 WONG CHUK HANG ROAD,HONG KONG,,,852 8170 1058,testingmainguyen+256@gmail.com,EMMA LI,,
General,ORG0257,CNNGB,,"UNION SOURCE CO., LTD",399 JUXIAN ROAD,CHINA,,,86 574 2783 3606,testingmainguyen+257@gmail.com,CANDY,,
General,ORG0258,CNNGB,,"NINGBO REJOICE I/E CO .,LTD",UNIT 4 NORTH BANK FORTUNE CENTER,JIANGBEI DISTRICT NINGBO,,,86 574 87652373,testingmainguyen+258@gmail.com,JERRY BAO,,
General,ORG0259,HKHKG,,ORIGIN RED LIMITED,2 CHONG YIP STREET,KWUN TONG,,,882 2312 0612,testingmainguyen+259@gmail.com,SULIN CHAN,,
General,ORG0260,HKHKG,,CACO LIMITED,1065 KINGS ROAD,HONG KONG,,,852 2535 6239,testingmainguyen+260@gmail.com,CHRIS,,
General,ORG0261,CNNGB,,NINGBO TOP FUTURE INTERNATIONAL TRA,XINFU ROAD,ZHEJIANG NINGBO,,,86 574 8800 1333,testingmainguyen+261@gmail.com,BRUCE,,
General,ORG0262,CNNGB,,BSM ENTERPRISE LTD,160 EAST JIN YUAN LANE,NINGBO JIANGDONG,,,86 574 87050632,testingmainguyen+262@gmail.com,BESSIE,,
General,ORG0263,CNNGB,,"MAS-HOUSEWARE INDUSTRY CO., LIMITED",99 TAIHUI LANE,YINZHOU NINGBO,,,0574 27865291,testingmainguyen+263@gmail.com,MICHAEL,,
General,ORG0264,CNYIW,,GOLDEN POUND INTERNATIONAL LIMITED,99 PINGHU ROAD,DONG XIN WU QINGKOU YIWU ZHEIJIANG,,,86 057985860323,testingmainguyen+264@gmail.com,DAVID,,
General,ORG0265,CNNGB,,"NINGBO HOMSKY HOUSEHOLD CO,.LTD",ZHONGHE,YINZHOU DISTRICT NINGBO,,,86 574 8793 9356,testingmainguyen+265@gmail.com,LILY,,
General,ORG0266,CNNGB,,"NINGBO EATON HOME IMP & EXP. CO., L",THE EXTENSION SECT OF LIANFENG ROAD,HAISHU DISTRICT NINGBO CITY ZHEJIAN,,,86 574 55715701,testingmainguyen+266@gmail.com,PAUL WESTWOOD,,
General,ORG0267,HKHKG,,SIMPLE SYMBOL LIMITED,39 MA TAU WAI ROAD,HUNGHOM KOWLOON,,,852 2362 0281,testingmainguyen+267@gmail.com,CHRIS HUEN,,
General,ORG0268,AUMEL,,DCI INTERNATIONAL PTY LTD,23 HINKLER ROAD,MORDIALLOC,,,03 9588 0001,testingmainguyen+268@gmail.com,NATHAN,,
General,ORG0269,CNCAN,,JUST CERAMIC INDUSTRIAL LIMITED,ZHONGSHAN AVENUE,GUANGZHOU,,,86 20 3809 7108,testingmainguyen+269@gmail.com,THOMAS YU,,
General,ORG0270,HKHKG,,BESTWAY HONG KONG LIMITED,1407 GOOD HARVEST INDUSTRIAL BUILDI,TUEN MUN,,,852 8108 2801,testingmainguyen+270@gmail.com,ISABELLA,,
General,ORG0271,CNLYG,,JIANGSU RUNSHI LIGHT&TEXTILE INDUST,SHIDONG VILLAGE SHIQIAO TOWN GANYU,LIANYUNGANG JIANGSU,,,86 518 8286 0099,testingmainguyen+271@gmail.com,GANWONG,,
General,ORG0272,HKHKG,,TOM'S TOY INTERNATIONAL (HK) LIMITE,1 SCIENCE MUSEUM ROAD,TSIM SHA TSUI EAST KOWLOON,,,852 2735 2891,testingmainguyen+272@gmail.com,SANDY,,
General,ORG0273,CNHGH,,"HANGZHOU FREEFISH IMP. & EXP. CO.,",567 DENGCAI STREET,SANDUN WESTLAKE DISTRICT HANGZHOU,,,86 571 86950885,testingmainguyen+273@gmail.com,SERAPH LOU,,
General,ORG0274,CNHYN,,"TAIZHOU TEAMWIN ARTS & CRAFTS CO.,",36 KANGZHUANG ROAD WEST INDUSTRIAL,HUANGYAN TAIZHOU CITY ZHEJIANG PROV,,,86 57689182962,testingmainguyen+274@gmail.com,SALES,,
General,ORG0275,HKHKG,,CREATIVE WORLDWIDE (HK) LIMITED,1 WANG TUNG STREET,KOWLOON,,,852 2148 9288,testingmainguyen+275@gmail.com,WINCY WONG,,
General,ORG0276,CNNGB,,NINGBO JOYFUL INDUSTRY AND TRADE CO,65 SHENGMEI NORTH ROAD,HIGH TECH ZONE NINGBO,,,86 574 87393990,testingmainguyen+276@gmail.com,EVA,,
General,ORG0277,CNSHA,,GENERAL MERCHANDISE INTERNATIONAL L,55 LUOJIN ROAD,MINHANG DISTRICT SHANGHAI,,,86 21 64401118,testingmainguyen+277@gmail.com,KENNY SO,,
General,ORG0278,CNSHA,,NINGBO FEIHONG STATIONERY LIMITED,8 FENGXIANG ROAD,ZHEIJIANG,,,0574 22662199,testingmainguyen+278@gmail.com,BECKY,,
General,ORG0279,CNLYG,,"LIANYUNGANG SENHUXI FOODSTUFF CO,.",9 PUXI ROAD,LIANYUNGANG JIANGSU,,,86 5188 3092586,testingmainguyen+279@gmail.com,DANA HU,,
General,ORG0280,HKHKG,,WINTIDE BRAND LIMITED,14 SCIENCE MUSEUM ROAD,TSIMSHATSUI EAST KOWLOON,,,0086 75488093905,testingmainguyen+280@gmail.com,andrew,,
General,ORG0281,CNXTA,,XIANGTAN WEISHENG IMPORT AND EXPORT,JINXIANGTAN COMMERCIAL SQUARE,YUHU DISTRICT XIANGTAN,,,0731 55571809,testingmainguyen+281@gmail.com,BRENDA,,
General,ORG0282,AUMEL,,MPR PTY LTD TRADING AS KORIMCO TOYS,127 LOGIS BLVD,DANDENONG SOUTH,,,03 9706 9057,testingmainguyen+282@gmail.com,LOUISE,,
General,ORG0283,,,AUSTRALIAN BUSINESS MOBILES (NSW) P,5A 149-163 MITCHELL ROAD,ERSKINEVILLE,,,0459 900 655,testingmainguyen+283@gmail.com,TIM REYNOLDS,,
General,ORG0284,CNNGB,,BEIFA GROUP CO LTD,298 JIANGNAN ROAD EAST,NINGBO,,,86 574 56786889,testingmainguyen+284@gmail.com,FIONA,,
General,ORG0285,CNSHA,,SHANGHAI CHEN LING  INDUSTRIAL CO.L,SHENWANG ROAD,MINGHANG SHANGHAI,,,86 21 65337918,testingmainguyen+285@gmail.com,KRIS,,
General,ORG0286,HKHKG,,DRAGON-I TOYS LTD,9 SCIENCE MUSEUM ROAD,KOWLOON,,,852 3182 5219,testingmainguyen+286@gmail.com,ALEX,,
General,ORG0287,CNSZX,,L AND M TECHNOLOGY LIMITED,2/F BLOCK BZ HUNG MABU THIRD IND PA,BAO'AN DISTRICT SHENZHEN,,,86 755 2747 3335,testingmainguyen+287@gmail.com,ANDY,,
General,ORG0288,CNSHA,,TOP GOAL ENTERPRISE LIMITED,4855 GUANGFULIN ROAD,XIAOKUNSHAN ZHEN SHANGHAI,,,86 21 67877199,testingmainguyen+288@gmail.com,CLARK,,
General,ORG0289,HKHKG,,CONTAC CABLE INDUSTRIAL LIMITED,55 HOI YUEN ROAD,KWUN TONG KOWLOON,,,852 23072768,testingmainguyen+289@gmail.com,EDWIN,,
General,ORG0290,HKHKG,,HEADSTART DIRECT LIMITED,1 SCIENCE MUSEUM ROAD,TST EAST,,,852 3153 4878,testingmainguyen+290@gmail.com,JESSIE,,
General,ORG0291,HKHKG,,HTI TOYS HK LIMITED,22 HUNG TO ROAD,KWAN TONG,,,852 2724 8183,testingmainguyen+291@gmail.com,iris,,
General,ORG0292,HKHKG,,DSL HOLDING LIMITED,21 MA TAU WAI ROAD,HUNGHOM KOWLOON,,,852 21867477,testingmainguyen+292@gmail.com,NIKKO LAM,,
General,ORG0293,CNNGB,,"NINGBO WINPEX IMP. & EXP. CO., LTD",818 JINYUAN ROAD,YINZHOU DISTRICT NINGBO,,,86 574 28867628,testingmainguyen+293@gmail.com,TRACY BI,,
General,ORG0294,SGSIN,,TRIWIN RESOURCES PTE. LTD,18 RICHARDS AVEBUE,SINGAPORE,,,6590000000,testingmainguyen+294@gmail.com,DENIS,,
General,ORG0295,INBOM,,PRINCE CORP PVT. LTD.,OPP SION CHUNABHATTI SIGINAL,SION EAST MUMBAI,,,022 24082288,testingmainguyen+295@gmail.com,neeraj,,
General,ORG0296,CNNGB,,NINGBO XIANGFENG IMP&EXP CO LTD,50 JIYIN ROAD,NINGBO,,,86 574 8623 1519,testingmainguyen+296@gmail.com,Maria Zhu,,
General,ORG0297,CNNGB,,"NINGBO LINKART PAPER PRODUCTS CO.,",568 SOUTHERN TIAN TONG ROAD,"YINGZHOU DISTRICT , NINGBO",,,86 574 5586 1903,testingmainguyen+297@gmail.com,AMY,,
General,ORG0298,THBKK,,"PICNIC PLAST INDUSTRIAL CO.,LTD",49 SOI KAMNANMAN 13,BANGBON BANGBON,,,66 2 8975051,testingmainguyen+298@gmail.com,SURACHAI,,
General,ORG0299,CNSZX,,CHANNELLEE INDUSTRIAL LIMITED,SHIAO 2ND AREA,DALANG LONGHUA SHENZHEN,,,86 755 29537112,testingmainguyen+299@gmail.com,NICOLE,,
General,ORG0300,HKHKG,,POWER SKY INTERNATIONAL LIMITED,151-153 HOI BUN ROAD,KWUN TONG KOWLOON,,,852 3693 8000,testingmainguyen+300@gmail.com,viven,,
General,ORG0301,CNTGZ,,SINCHEM SILICA GEL CO..LTD,1 XINXU INDUSTRIAL,DONGGUO TOWN TENGZHOU,,,86 632 2528333,testingmainguyen+301@gmail.com,LEE,,
General,ORG0302,HKHKG,,STALLION SPORT LIMITED,TAI YOU STREET,SAN PO LONG KOWLOON,,,852 3516 2388,testingmainguyen+302@gmail.com,CHRIS FOX,,
General,ORG0303,,,MITTAL INTERNATIONAL,275 SECTOR,PANIPAT,,,91 180 6612600,testingmainguyen+303@gmail.com,MR TARUN MITTAL,,
General,ORG0304,CNNGB,,"NINGBO SEATOP IMP & EXP CO.,LTD",TIANTONG SOUTH ROAD,YINZHOU,,,0574 8739 7730,testingmainguyen+304@gmail.com,WENDY,,
General,ORG0305,,,"ZHEJIANG XINDING PLASTIC CO.,LTD",2267 JINGZHONG ROAD,HONGIIA ZHEJIANG,,,0576 88806758,testingmainguyen+305@gmail.com,JANE,,
General,ORG0306,HKHKG,,GI-GO TOYS FACTORY LTD,63 MODY ROAD,TST EAST,,,852 2311 9902,testingmainguyen+306@gmail.com,SIMON,,
General,ORG0307,CNNKG,,"NANJING DELTA TOYS & NOVELTY CO., L",66 RUAN JIAN,YUHUA NANJING,,,86 2587718508,testingmainguyen+307@gmail.com,ALICE,,
General,ORG0308,,,THE GEELONG BRUSH COMPANY,40 LEATHER STREET,BREAKWATER,,,03 5229 7663,testingmainguyen+308@gmail.com,JATIN SHARMA,,
General,ORG0309,CNNGB,,"NINGBO SOFINE UNION HOME DECOR CO.,",188 TAIAN MIDDLE ROAD,YINZHOU NINGBO,,,86 574 88173695,testingmainguyen+309@gmail.com,SOPHIA,,
General,ORG0310,,,CJ GLOBAL INC,20-21 WAGARAW ROAD,NEW JERSEY FAIR LAWN,,,646 415 9056,testingmainguyen+310@gmail.com,AL JACOB,,
General,ORG0311,CNNGB,,"NINGBO PARAMONT IMP. & EXP. CO., LT",1498 JIANGNAN ROAD,NINGBO,,,86 574 557178,testingmainguyen+311@gmail.com,LILY XIA,,
General,ORG0312,CNNGB,,"NINGBO MARSWATER IMP & EXP. CO.,LTD",THE EXTENSION SECT OF LIANFENG ROAD,NINGBO CITY ZHEIJIANG,HAISHU DISTRICT,,086 574 55228321,testingmainguyen+312@gmail.com,JANE,,
General,ORG0313,,,"ZHEJIANG HENGYANG UMBRELLA CO.,LTD",518 GUANGDONG ROAD,ZHEJIANG,,,86 057 82296328,testingmainguyen+313@gmail.com,NINA,,
General,ORG0314,CNNKG,,JESN ENTERPRISES LIMITED,27 YANLING LANE,QINHUAI DISTRICT NANJING,,,25 84419355,testingmainguyen+314@gmail.com,VICKY,,
General,ORG0315,,,"ZHANGZHOU ALILY BATH PRODUCTS CO.,",WENPU ROAD,JIAOMEI ECONOMIC DEVELOP ZONE ZHANG,,,0596 3920365,testingmainguyen+315@gmail.com,ANNA,,
General,ORG0316,CNXMN,,LANDY INTERNATIONAL,192-196 TIANFENG TOAD,JIMEI XIAMEN FUJIAN,,,86 592 6299821,testingmainguyen+316@gmail.com,NIKKI,,
General,ORG0317,,,MENNY CORPORATION (INTL) PTY LTD,46-50 KENT ROAD,MASCOT,,,02 9126 9279,testingmainguyen+317@gmail.com,MENNY WASSERSHTROM,,
General,ORG0318,,,HASBRO INTERNATIONAL TRADING B.V.,DE ENTREE 240,1101 EE AMSTERDAM,,,31 20800 4620,testingmainguyen+318@gmail.com,NICHOLAS WOODS,,
General,ORG0319,CNSHA,,SAAME TOOLS (SHANGHAI) IMPORT AND E,1369 KANGQIAO DONG ROAD,SHANGHAI PUDONG NEW AREA,,,86 021 68139851,testingmainguyen+319@gmail.com,RENXIANGQUN,,
General,ORG0320,CNSZX,,INTRA BRANDS LIMITED,1008 HONGLING ZHONG ROAD,SHENZHEN,,,86 755 25588353,testingmainguyen+320@gmail.com,BETTY HUNAG,,
General,ORG0321,CNSWA,,HONGKONG ZHEHONG TOY LIMITED,FUAN NORTH ROAD,CHENGHAI DISTRICT SHANTOU GUANGDONG,,,86 754 89868721,testingmainguyen+321@gmail.com,FINY CAI,,
General,ORG0322,CNHGH,,"HANGZHOU EDAR INTERNATIONAL CO., LT",238 TIANMUSHAN ROAD,HANGZHOU ZHEJIANG,,,86 571 56837002,testingmainguyen+322@gmail.com,IVY LE,,
General,ORG0323,CNHFE,,"HEFEI DGCT IMP. & EXP. CO., LTD",168 XIANGZHANG ROAD,HIGH-TECH DISTRICT HEFEI ANHUI,,,86 551 65302951,testingmainguyen+323@gmail.com,LIN CHEN,,
General,ORG0324,CNHGH,,"HANGZHOU SUNCLEANING CO., LTD.",30 WANTANG ROAD,HIGH NEW EAST SCIENCE TECH.PARK HAN,,,86 571 28861586,testingmainguyen+324@gmail.com,ANNY,,
General,ORG0325,CNJIA,,"INNOVATIVE CREATIONS, INC",33 HONGSHAN STREET,XINWU DISTRICT WUXI JIANGSU,,,86 25 84530453,testingmainguyen+325@gmail.com,HILLARY DING,,
General,ORG0326,,,CANNINGVALE INTERNATIONAL PTY LTD,17 WILLIAM STREET,CREMORNE,,,61 1800801728,testingmainguyen+326@gmail.com,SALES MANAGER,,
General,ORG0327,CNSHA,,"HOT FOCUS, INC",58 XINHAO ROAD,PUDONG NEW DISTRICT SHANGHAI,,,86 21 5838246,testingmainguyen+327@gmail.com,LILIAN LEE,,
General,ORG0328,AUMEL,,CLASSICA KITCHEN & GIFTWARE PTY LTD,2/12 LINCOLN STREET,BRUNSWICK EAST,,,03 9383 5222,testingmainguyen+328@gmail.com,ROBERT BEKHAZI,,
General,ORG0329,CNNGB,,NINGBO SHENGTONG FASHION ACCESSORIE,818 QIMING ROAD,YINZHOU NINGBO,,,86 574 87170276,testingmainguyen+329@gmail.com,ANTHONY YU,,
General,ORG0330,AUMEL,,MISTIYARN PTY LIMITED TRADING AS MI,615 WARRIGAL ROAD,ASHWOOD,,,03 9569 8800,testingmainguyen+330@gmail.com,RICK HARRIS,,
General,ORG0331,,,HOT SPRINGS PTY LTD,37 DIIDT STREET,ALEXANDRIA,,,02 8080 2000,testingmainguyen+331@gmail.com,FAY GAZAL HYBKI,,
General,ORG0332,NZAKL,,STAR PRODUCTS LTD,3 BROADWAY,AUCKLAND,,,64 9636 4484,testingmainguyen+332@gmail.com,MARCHEA ADAMS,,
General,ORG0333,CNNGB,,"NINGHAI YODA STATIONERY CO., LTD.",16 JINSHAN 9TH ROAD,TAOYUAN DISTRICT NINGHAI NINGBO,,,86 574 82538881,testingmainguyen+333@gmail.com,SUSIE CHAN,,
General,ORG0334,CNNGB,,"NINGBO SOLAR TECH IMP & EXP CO., LT",818 JINYUAN ROAD,NINGBO ZHEJIANG,,,86 574 28870771,testingmainguyen+334@gmail.com,ALICE,,
General,ORG0335,CNTAO,,QINGDAO BOARDEST ARTS AND CRAFTS CO,44-60 ZHONGSHAN ROAD,SHI NAN DISTRICT QINGDAO,,,86 532 83813319,testingmainguyen+335@gmail.com,ROBIN XIN,,
General,ORG0336,CNNGB,,NINGBO WIN ALL STATIONERY & GIFT CO,28 BAIZHANG E. ROAD,NINGBO,,,86 574 87283776,testingmainguyen+336@gmail.com,FRANK,,
General,ORG0337,HKHKG,,ECLIPSE TECHNOLOGY LIMITED,135 HOI BUN ROAD,KWUN TONG KOWLOON,,,852 574 87092960,testingmainguyen+337@gmail.com,JOHN JENNINGS,,
General,ORG0338,HKHKG,,TRAVELWAY GROUP INT'L HONG KONG LTD,22-26 AUSTIN AVE.,TSIMSHATSUI,,,852 2317 0018,testingmainguyen+338@gmail.com,JOE ASSI,,
General,ORG0339,CNCAN,,"AEMAXX CO., LIMITED",DONGPU ER ROAD,TIANHE DISTRICT GUANGZHOU,,,86 20 38395470,testingmainguyen+339@gmail.com,TINA,,
General,ORG0340,HKHKG,,BONTEX INDUSTRIAL COMPANY,28 WANG WO TSAI STREET,TSUEN WAN M.T.,,,852 2408 1517,testingmainguyen+340@gmail.com,DONNY HO,,
General,ORG0341,CNNGB,,"REGAL BABYCARE CHINA CO., LTD",SOUTH TIAN TONG ROAD,YINZHOU DISTRICT NINGBO ZHEJIANG,,,86 574 82822281,testingmainguyen+341@gmail.com,CHARLIE McSHANAG,,
General,ORG0342,CATOR,,CALIFORNIA INNOVATIONS INC.,36 DUFFLAW ROAD,TORONTO ONTARIO M6A2W1,,,416 590-7700-403,testingmainguyen+342@gmail.com,GUY GAGNON,,
General,ORG0343,INBOM,,TRINKETREE,3/57 SAMRAT ASHOK,MUMBAI MAHARASHTRA,,,91 9833069343,testingmainguyen+343@gmail.com,DHRUV MANEK,,
General,ORG0344,CNSXG,,SHAOXING MAGPIE-TEXTILE COMPANY LTD,188 QISHENG ROAD,PAOJIANG AREA SHAOXING ZHEJIANG,,,86 575 85520908,testingmainguyen+344@gmail.com,KEVIN,,
General,ORG0345,CNNKG,,EBIC TOOLS LIMITED,109 SOFTWARE AVENUE,NANJING JIANGSU,,,86 25 52275196,testingmainguyen+345@gmail.com,POPPY LI,,
General,ORG0346,HKHKG,,SPLENDID FOOTWEAR CO. LTD,5 WANG TAI ROAD,KOWLOON BAY,,,852 279 502369,testingmainguyen+346@gmail.com,SIMON CHOW,,
General,ORG0347,CNDGG,,STANDBY HOUSEHOLD ARTICLES LIMITED,LIBOSHUI 2ND INDUSTRIAL ZONE,SHIWAN BOLUO HUZHOU GUANGDONG,,,86 752 6187838,testingmainguyen+347@gmail.com,IRIS LIU,,
General,ORG0348,HKHKG,,MING KEE MANUFACTORY LIMITED,1A YUK YAT STREET,TOKWAWAN KOWLOON,,,852 277489 19,testingmainguyen+348@gmail.com,LAWRENCE LEE,,
General,ORG0349,,,SADAQAT LIMITED,SAHIANWALA ROAD,FAISALABAD KHURIANWALA,,,9240000000000,testingmainguyen+349@gmail.com,NADEEM IQBAL,,
General,ORG0350,CNSHA,,AILSIN HOLDINGS LIMITED,188 DUJUAN ROAD,PU DONG SHANGHAI,,,86 21 5059 1407,testingmainguyen+350@gmail.com,ANITA ZONG,,
General,ORG0351,CNSZX,,GOLDEN VISION (CHINA) LIMITED,6 BAO FU ROAD,PING HU LONGGANG DISTRICT SHENZHEN,,,86 18825114689,testingmainguyen+351@gmail.com,IVY CHAN,,
General,ORG0352,HKHKG,,CHASER INTERNATIONAL LIMITED,5 CANTON ROAD,TST KOWLOONG HONG KONG,,,852 28632106,testingmainguyen+352@gmail.com,DORIS WONG,,
General,ORG0353,CNSZX,,WINSTARS TECHNOLOGY LTD,DALANG STREET,LONGHUA TOWN BAO'AN DISTRICT SHENZH,,,,testingmainguyen+353@gmail.com,TONY CHEN,,
General,ORG0354,HKHKG,,PETSOURCE ASIA LIMITED,181 WAI YIP STREET,KWUN TONG KOWLOON HONG KONG,,,852 2981 0811,testingmainguyen+354@gmail.com,NEIL NG,,
General,ORG0355,CNQZJ,,"SUNFLOWER HOME DECORATION CO., LTD",397 CHENGHUA SOUTH ROAD,QUANZHOU FUJIAN,,,86 595 2266 1699,testingmainguyen+355@gmail.com,JESSICA ZHANG,,
General,ORG0356,,,SPORTSWIFT LIMITED - FOB CN,CENTURY HOUSE BRUNEI ROAD,WAKEFIELD WEST YRKSHIRE,,,0044 1924 839,testingmainguyen+356@gmail.com,Chris Beck,,
General,ORG0357,CNNGB,,NINGBO JEANNY IMPORT & EXPORT CO LT,578 TIANTONG SOUTH ROAD,NINGBO ZHEJIANG,,,86 574 56633301,testingmainguyen+357@gmail.com,GEORGE,,
General,ORG0358,CNNGB,,"NINGBO TENGONE IMPORT & EXPORT CO.,",NO.1 JINYE STREET,ZHENHAI DISTRICT NINGBO,,,86 574 87607033,testingmainguyen+358@gmail.com,TEDDY DONG,,
General,ORG0359,HKHKG,,GOLDEN POWER CORPORATION (HK) LIMIT,57 TING KOK ROAD,TAI PO HONG KONG,,,852 31252288,testingmainguyen+359@gmail.com,WLTON CHU,,
General,ORG0360,CNJIX,,"TONGXIANG ZHONGXIANG TEXTILES CO.,",233 FENGXIANG ROAD,JIAXING TONGXIANG,,,86 573 89375511,testingmainguyen+360@gmail.com,PETER,,
General,ORG0361,HKHKG,,CREATIVE BALLS MANUFACTURING LTD,2A SAI YEUNG CHOI STREET,MONGKOK KOWLOON HONG KONG,,,852 3524 7262,testingmainguyen+361@gmail.com,MICHELLE POON,,
General,ORG0362,CNNGB,,"NINGBO LUMIAWELT CO., LTD.",850 CHENGXIN ROAD,YINZHOU NINGBO,,,86 574 88393892,testingmainguyen+362@gmail.com,KAREN WONG,,
General,ORG0363,,,SPORTSWIFT LIMITED - FOB UK,CENTRURY HOUSE BRUNEI ROAD,WAKEFIELD WEST YORKSHIRE,,,0044 1924 839...,testingmainguyen+363@gmail.com,Chris Beck,,
General,ORG0364,CNSZX,,S&T BEST SOLUTION LIMITED,5008 LONGGANG ROAD,LONGGANG  DISTRICT SHENZHEN,,,86 755 28995805,testingmainguyen+364@gmail.com,TINA,,
General,ORG0365,CNYZH,,"YANGZHOU TIIKA TARADING CO., LTD",WEIYANG ROAD,YANGZHOU CITY JIANGSU PROVINCE,,,86 514 87364819,testingmainguyen+365@gmail.com,ADA LI,,
General,ORG0366,CNNGB,,QINGHAI BSBSUCCEED INTERNATIONAL TR,459 TAIKANG MIDDLE ROAD,YINZHOU DISTRICT NINGBO ZHEJIANG,,,86 18268610691,testingmainguyen+366@gmail.com,WENDY LAI,,
General,ORG0367,,,IGLOO BOOKS LTD,MEARS ABBY ROAD,SYWELL NORTHANTS,,,44 1604 741116,testingmainguyen+367@gmail.com,AMANDA RICE,,
General,ORG0368,CNDGG,,"GUANGDONG KEGAO ELECTRONICS CO., LT",39 EAST KEJI AVE,NANHAI FOSHAN GUANGDONG P.R.C,,,86 13927772794,testingmainguyen+368@gmail.com,RAYMOND HO,,
General,ORG0369,CNHFE,,"ANHUI JUST INDUSTRIAL CO., LTD",LONGTU ROAD,HEFEI ANHUI CHINA,,,86 0551-65307186,testingmainguyen+369@gmail.com,CHRIS,,
General,ORG0370,CNSZX,,SHANTOU GUOYI INDUSTRIAL COMPANY LI,BANTIAN INTERNATIONAL CENTER,LONGGANG DISTRICT SHENZHEN,,,86 755 8465 5247,testingmainguyen+370@gmail.com,LILY YANG,,
General,ORG0371,AUMEL,,BELLVIEW CORPORATION PTY LTD,41 LAKESIDE AVE,RESERVOIR,,,03 9460 7022,testingmainguyen+371@gmail.com,KAREN LAWLER,,
General,ORG0372,TWTPE,,"ADATA TECHNOLOGY CO., LTD",LIANCHENG ROAD,NEW TAIPEI CITY ZHONGHE DISTRICT,,,886 28228 0886,testingmainguyen+372@gmail.com,MARY WENG,,
General,ORG0373,,,METTLER PACKAGING PTY LTD,27-31 DUERDIN STREET,NOTTING HILL,,,61 447 061673,testingmainguyen+373@gmail.com,NUR ALTUN,,
General,ORG0374,,,WORLDFA EXPORTS PVT. LTD.,449-450 HSIDC EPIP,KUNDLI DISTT SONEPAT HARYANA,,,920000000000,testingmainguyen+374@gmail.com,AKHIL MITTAL,,
General,ORG0375,CNZUH,,"ZHUHAI HERMESIN ENTERPRISES CO., LT",106 GUANGXIN ROAD,PINGSHA TOWN ZHUHAI,,,86 756 8605 108,testingmainguyen+375@gmail.com,YIN,,
General,ORG0376,HKHKG,,TAI KEE INDUSTRIAL COMPANY LIMITED,7 SHEK PAI TAU ROAD,TUEN MUN N.T. HONG KONG,,,852 21919125,testingmainguyen+376@gmail.com,CLIFF,,
General,ORG0377,CNDGG,,DREAMS INDUSTRIAL LIMITED,89 DURUAN 2 ROAD,PENGJIANG DISTRICT  GUANGDONG,,,750 3655677,testingmainguyen+377@gmail.com,ABBY,,
General,ORG0378,CNDGG,,SHENZHEN GOLD-EAST ELECTRONIC CO.,"467 GUSHU, XIXIANG",BAO'AN DISTRICT SHENZHEN GUANGDONG,,,86 755 2788 9510,testingmainguyen+378@gmail.com,CHUZHAO CHEN,,
General,ORG0379,CNWNZ,,TOPBRIGHT ANIMATION CORPORATION,ANYANG STREET,RUIAN WENZHOU ZHEJIANG,,,0571 8678 7395,testingmainguyen+379@gmail.com,JANET,,
General,ORG0380,CNNGB,,"NINGBO SEASONS IMPORT & EXPORT CO.,",13 YANGUI ROAD,DONGQIANHU TOURIST RESORT,,,86 574 56202320,testingmainguyen+380@gmail.com,HOLLY HU,,
General,ORG0381,,,VENROSS PTY LTD T/AS VR DISTRIBUTIO,22 BUTLER BLVE,ADELAIDE AIRPORT,,,08 8234 1355,testingmainguyen+381@gmail.com,ANTON GUTSCHE,,
General,ORG0382,,,NEW YORK PTY LTD,312 GEORGE ST,WNDSOR,,,401000000,testingmainguyen+382@gmail.com,PHILIP LLOYD,,
General,ORG0383,CNNGB,,"NINGBO WELLCOME TRADING CO., LTD.",299 GUANGHUA ROAD,NINGBO,,,86 57489072862,testingmainguyen+383@gmail.com,LILY HUANG,,
General,ORG0384,,,ENGELITE P/L,7-19 BALLANTYNE STREET,SOUTHBANK,,,61 3 8633 8888,testingmainguyen+384@gmail.com,TOM EVANS,,
General,ORG0385,CNFOC,,"FUJIAN ONLEAD TRADING CO., LTD",71 WUSI ROAD,FUZHOU,,,86 591 28378966,testingmainguyen+385@gmail.com,JANIE CHENG,,
General,ORG0386,CNWNZ,,"WENZHOU MAYA TRADE CO., LTD.",168 DAOHANG ROAD,RUIAN CITY ZHEJIANG,,,86 577 66801877,testingmainguyen+386@gmail.com,MICHAEL LIN,,
General,ORG0387,HKHKG,,SSS PTY LTD,16 VALEDICTION ROAD,KINGS PARK,,,612 9672 3888,testingmainguyen+387@gmail.com,CHERYL ARMSTRONG,,
General,ORG0388,HKHKG,,REDSHIFT INDUSTRIES LTD,485 CASTLE PEAK ROAD,HONG KONG,,,852 2242 6116,testingmainguyen+388@gmail.com,WILSON WONG,,
General,ORG0389,CNHGH,,"ZHEJIANG FAIRTRADE E-ECOMMERCE CO.,",308 NORTH ZHONGSHAN ROAD,HANGZHOU ZHEJIANG,,,86 571 88763899,testingmainguyen+389@gmail.com,HEBE ZHANG,,
General,ORG0390,CNSHA,,"SUNAMI INTERNATIONAL CO., LTD",80 YUN GUANG ROAD,SHANGHAI,,,61 2 96693636,testingmainguyen+390@gmail.com,CHERYL,,
General,ORG0391,CNSHA,,TOYMONSTER  INTERNATIONAL LIMITED,JINZHONG ROAD,CHANGNING DISTRICT SHANGHAI,,,03 90410369,testingmainguyen+391@gmail.com,CHRIS HARDIMAN,,
General,ORG0392,HKHKG,,D & S CABLE INDUSTRIES (HK) LIMITED,151 GLOUCESTER ROAD,HONG KONG,,,86 755 83401338,testingmainguyen+392@gmail.com,AGNEL PENG,,
General,ORG0393,CNCAN,,FESTA (GUANGZHOU) CO LTD,498 HUANSHI ROAD EAST,GUANGZHOU,,,86 20 87622123,testingmainguyen+393@gmail.com,PATRICK NG,,
General,ORG0394,HKHKG,,RAYLAND INDUSTRIAL & DEVELOPMENT CO,12-14 SAM CHUK STREET,SAN PO KONG,,,852 27635688,testingmainguyen+394@gmail.com,GILBERT SIN,,
General,ORG0395,,,HOGEWONING B.V.,VINKENWEG 50,RIJNSBURG NETHERLANDS,,,31700000000,testingmainguyen+395@gmail.com,TROMP HOGEWONING,,
General,ORG0396,CNNGB,,NINGBO SEW-STAR INTERNATIONAL TRADI,3 SHENGBAO ROAD,NINGBO JIANGBEI,,,86 574 87382610,testingmainguyen+396@gmail.com,sales,,
General,ORG0397,CNGUI,,"EISHO CO., LTD.",CHAOYANG ROAD,GUILIN GUANGXI,,,86-773-5680350,testingmainguyen+397@gmail.com,JELLY,,
General,ORG0398,CNHIN,,"ZHEJIANG QIMEI COMMODITY CO., LTD",2 XINYA ROAD,HAINING,,,86 0571 8358 ,testingmainguyen+398@gmail.com,FIONA TAN,,
General,ORG0399,CNDGG,,HK GALONG INDUSTRY LIMITED,1 FENGXING STREET,CHENGHAI SHANTOU GUANGDONG,,,86 754 87215595,testingmainguyen+399@gmail.com,ADA WANG,,
General,ORG0400,CNYIW,,"YIWU HONGXI CRAFT CO., LTD",533 SHENGSHOU ROAD,CHENGXI INDUSTRIAL AREA YIWU ZHEJIA,,,86 579 89907686,testingmainguyen+400@gmail.com,JACKY CHENG,,
General,ORG0401,CNTAO,,PARTY TIME DISTRIBUTION LIMITED,237 WAN NIANQUAN ROAD,LICANG DISTRICT QINGDAO,,,86 18660286101,testingmainguyen+401@gmail.com,ANGIE LIU,,
General,ORG0402,,,JUPITER LIGHT APS,BILLEDVEJ 1 SAL 6,NORDHVAN DEMARK,,,45 3526 1111,testingmainguyen+402@gmail.com,LISA LIN HALSKOV,,
General,ORG0403,,,R.H. SMITH AND SONS (WIGMAKERS) LIM,CALDICOTT DRIVE,GAINSBOROUGH LINCOLNSHIRE,,,44 1132 025457,testingmainguyen+403@gmail.com,SHELLEY McGHIE,,
General,ORG0404,,,SAMBRO INTERNATIONAL LTD,HARDY'S GATE DUMERS LANE,BURY LANCASHIRE,,,0845 873 9380,testingmainguyen+404@gmail.com,MIKE CLAYTON,,
General,ORG0405,HKHKG,,WINGART INTERNATIONAL (HONG KONG) C,77-81 CHAI WA KOK STREET,TSUEN WAN N.T.,,,852 9424 2312,testingmainguyen+405@gmail.com,JOANNA LI  / LEXI PENG,,
General,ORG0406,CNNGB,,"NINGBO EVERSHINE INTERNATIONAL CO.,",99 XIANGYUN NORTH ROAD,HI TECH DISTRICT NINGBO,,,86 574 87256124,testingmainguyen+406@gmail.com,AMY LOU,,
General,ORG0407,HKHKG,,SPIN MASTER TOYS FAR EAST LTD,77 MODY ROAD,TSIM SHA TSUI EAST KOWLOON,,,852 21704160,testingmainguyen+407@gmail.com,CASSANDRA NARDIN,,
General,ORG0408,HKHKG,,"MERCONSER (HK) TOYS CO., LIMITED",122 AUSTIN ROAD,TSIM SHA TSUI KOWLOON,,,86 754 85899755,testingmainguyen+408@gmail.com,SANDY,,
General,ORG0409,CNNGB,,"NINGBO TOPRANK IMPORT & EXPORT CO.,",958 QIAN HU NORTH ROAD,NINGBO ZHEJIANG,,,0574 87340880,testingmainguyen+409@gmail.com,HANSEN,,
General,ORG0410,CNYZH,,"YANCHENG CREATIVE TRADING CO., LTD",11 JUHENG ROAD,YANCHENG CITY JIANGSU PROVINCE,,,86 515 68559886,testingmainguyen+410@gmail.com,FENG LINMEI,,
General,ORG0411,CNCGS,,SUZHOU DARPOOL IMPORT AND EXPORT CO,28 XUEQIAN ROAD,HAIYU TOWN CHANGSHU JIANGSU,,,86 512 52386155,testingmainguyen+411@gmail.com,PETER YAN,,
General,ORG0412,CNDGG,,"FEILONG PLASTIC INDUSTRY CO., LTD",SOUTH OF WENGUAN ROAD,CHENHAI SHANTOU GUANGDONG,,,86 754 86989396,testingmainguyen+412@gmail.com,BELINDA ZHANG,,
General,ORG0413,AUMEL,,AUSTPAPER PTY LTD,32-36 CAPITAL LINK DRIVE,CAMPBELLFIELD VICTORIA,,,03 93570908,testingmainguyen+413@gmail.com,ROBERT LANE,,
General,ORG0414,CNSZX,,"SHENZHEN SHUOYU TECHNOLOGY CO., LTD",DALANG STREET,LONGHUA DISTRICT SHENZHEN GUANGDONG,,,0086 755 2821,testingmainguyen+414@gmail.com,YUANYUAN LONG,,
General,ORG0415,HKHKG,,BUILDER PACKING AND MATERIALS LIMIT,25 TAI YIP STREET,KWUN TONG HONG KONG,,,852 2756 0657,testingmainguyen+415@gmail.com,KAREN LAU,,
General,ORG0416,CNSZX,,SHENZHEN SKY DRAGON AUDIO-VIDEO,LIUXIAN 2RD,DISTRICT 71 BAOAN SHENZHEN,,,86 755 2766 1570,testingmainguyen+416@gmail.com,CELIA DENG,,
General,ORG0417,CNCAN,,GUANGZHOU PRODIGY DAILY-PRODUCTION,62 BOAI ROAD,NANSHA DISTRICT GUANGZHOU,,,86 13928836486,testingmainguyen+417@gmail.com,ANNIE HUANG,,
General,ORG0418,CNSUQ,,"SUQIAN EASY DECORATE CARPET CO., LT",185 JINJIHU ROAD,SUQIAN ECONOMIC ZONE JIANGSU PROVIN,,,86 182 5108 1897,testingmainguyen+418@gmail.com,DORIS CAI,,
General,ORG0419,CNXMN,,PLAYFUN LIMITED,246 XIANYUE ROAD,XIAMEN FUJIAN,,,86 592 5206153,testingmainguyen+419@gmail.com,SEVI LIN,,
General,ORG0420,CNNIG,,"YIKAI CO., LIMITED",8 NAN'ERLI GUICHUN ROAD,NANNING GUANGXI,,,86 771 5318561,testingmainguyen+420@gmail.com,WING ZHANG,,
General,ORG0421,HKHKG,,"KELLY TOYS CO., LIMITED",505 HENNESSY ROAD,CAUSEWAY BAY,,,86 754 89310138,testingmainguyen+421@gmail.com,MIA HUANG,,
General,ORG0422,CNSWA,,SHENGYING TOYS COMPANY LIMITED,DUTOU INDUSTRIAL PARK,SHANGHUA CHENGHAI DISTRICT SHANTOU,,,86 754 85606227,testingmainguyen+422@gmail.com,CARINA,,
General,ORG0423,AUMEL,,ZURU PTY LIMITED,525 COLLINS STREET,MELBOURNE,,,852 23746 9003,testingmainguyen+423@gmail.com,NICHOLAS CLEAVER,,
General,ORG0424,AUMEL,,IDEAL SOURCES PTY LTD,11-13 LAKEWOOD BOULEVARD,BRAESIDE,,,03 9587 7706,testingmainguyen+424@gmail.com,TONY PASTORE,,
General,ORG0425,CNSHA,,"SHANGHAI BEAR HUGS TOYS CO., LIMITE",1060 NEW SONGJIANG ROAD,SHANGHAI SONGJIANG,,,021 3779 3812,testingmainguyen+425@gmail.com,SHANG FENG,,
General,ORG0426,HKHKG,,GIFTED POINT LIMITED,1 WANG KWONG ROAD,KOWLOON  BAY KOWLOON,,,86 592 3675699,testingmainguyen+426@gmail.com,VICTOR YE,,
General,ORG0427,CNWNZ,,WENZHOU YUANFEI PET TOY PRODUCTS CO,NO 1 CHONGLE ROAD,SHUITOU PINGYANG WENZHOU ZHEJIANG,,,86 0577 5988,testingmainguyen+427@gmail.com,ERICA,,
General,ORG0428,HKHKG,,BON BON DEVELOPMENT LTD.,14 SCIENCE MUSEUM ROAD,TST EAST KLN. HONG KONG,,,852 2320 1990,testingmainguyen+428@gmail.com,KATHLEEN CHEUNG,,
General,ORG0429,,,PALADONE PRODUCTS LIMITED,APEX HOUSE DOLPHIN WAY,WEST SUSSEX SHOREHAM-BY-SEA,,,44 1273230037,testingmainguyen+429@gmail.com,NATALEE HILTON,,
General,ORG0430,CNNGB,,"NINGBO LEVI HOME PRODUCTS CO., LTD",18 XINGYONG ROAD,JIANGBEI DISTRICT NINGBO ZHEJIANG,,,57500000000,testingmainguyen+430@gmail.com,JORDAN XIA,,
General,ORG0431,BDDAC,,PRAN DAIRY LTD.,PRAGATI SARANI,MIDDLE BADDA,,,88 02 9881792,testingmainguyen+431@gmail.com,TARIQUR RAHMAN,,
General,ORG0432,HKHKG,,GREAT CHINA EMPIRE LTD,11 ON SUM STREET,SHEK MUN SHATIN,,,852 26869424,testingmainguyen+432@gmail.com,EDDIE,,
General,ORG0433,AUMEL,,EC BIRCH PTY LTD,104 DOUGHARTY ROAD,HEIDELBERG WEST,,,03 9450 8900,testingmainguyen+433@gmail.com,SHIV BENJAMIN,,
General,ORG0434,SGSIN,,MAGNUM ASIA PTE LTD,30 CECIL STREET,PRUDENTIAL TOWEL SINGAPORE,,,61 3 9762 2000,testingmainguyen+434@gmail.com,CORINNE RICO,,
General,ORG0435,AUSYD,,BMS WHOLESALE PTY LTD,8 GLADSTONE ROAD,CASTLE HILL,,,61 2 9634 7224,testingmainguyen+435@gmail.com,DAVID SMITH,,
General,ORG0436,CNWHI,,WUHU DELUX MOBILE INTERNET DEVICE,WUHU MACHINERY INDUSTRIAL PARK,WUHU COUNTY,,,86 755 8959 7714,testingmainguyen+436@gmail.com,OWEN WANG,,
General,ORG0437,HKHKG,,DOLLAR QUEEN LIMITED,11 HOI SHING ROAD,TSUEN WAN,,,852 2620 5000,testingmainguyen+437@gmail.com,JOCELYN LEE,,
General,ORG0438,CNNGB,,"NINGBO EC LIFE IMP AND EXP CO.,LTD",136 SHUND ROAD,NIBGBO HAISHU,,,86 574 87625122,testingmainguyen+438@gmail.com,JACKIE,,
General,ORG0439,CNFOC,,FUJIAN JOHNSON INDUSTRIES CO. LTD.,158 WUSI ROAD,FUZHOU FUJIAN,,,86 591 86212080,testingmainguyen+439@gmail.com,JOHNSON,,
General,ORG0440,HKHKG,,SEASONS HK LTD,15 HING YIP STREET,KWUN TONG,,,852 2312 0110,testingmainguyen+440@gmail.com,ALEX WONG,,
General,ORG0441,CNYZH,,"YANGZHOU BRUSHMANN GROUP CO., LTD",433 MIDDLE JIANGYANG ROAD,YANGZHOU HANJIANG DISTRICT,,,86 514 87783151,testingmainguyen+441@gmail.com,STEPHANIE TIAN,,
General,ORG0442,CNNGB,,"NINGBO SAGEMENT STATIONERY CO., LTD",299 GUANGHUA ROAD,NINGBO NATIONAL HI-TECH ZONE NINGBO,,,86 574 89072830,testingmainguyen+442@gmail.com,COCO ZHUO,,
General,ORG0443,AUSYD,,NEON ORIENT OCEANIA PTY LTD,39/650 GEORGE STREET,SYDNEY,,,0409 571208,testingmainguyen+443@gmail.com,MARK GRIFFITHS,,
General,ORG0444,HKHKG,,GERMAN QUALITY CONFECTIONERY LTD,1 HOK YUEN STREET EAST,HONG HOM  HONG KONG,,,852 94080496,testingmainguyen+444@gmail.com,BAERBEL LELLBACH,,
General,ORG0445,CNSZX,,SHINERICH INDUSTRIAL LIMITED,1006 FUZHONG 3RD ROAD,SHENZHEN,,,86 755 88267722,testingmainguyen+445@gmail.com,JACKY  LEUNG,,
General,ORG0446,CNHGH,,"HANGZHOU RENA PET PRODUCTES CO., LT",39 XINGFA ROAD XINGQIAO STREET,YUHANG DISTRICT HANGZHOU,,,86 571 8616 0970,testingmainguyen+446@gmail.com,NANCY,,
General,ORG0447,HKHKG,,CHASE ON PLASTIC HOUSEWARE LIMITED,182-190 TAI LIN PAI ROAD,KWAI CHUNG N.T.,,,852 2427 3933,testingmainguyen+447@gmail.com,LEO WEI,,
General,ORG0448,CNSZX,,SHENZHEN OCEANTECH ELECTRONICS CO L,YINTIAN ROAD XI XIANG STREET,BAOAN DISTRICT SHENZHEN GUANGDONG,,,86 138 2745 1180,testingmainguyen+448@gmail.com,SIMON,,
General,ORG0449,CNJIX,,"XINGAN GREATCHIP INDUSTRY CO., LTD",NORTHERN E-COMMERCE INDUSTRIAL PARK,OF XINGAN JIAN JIANGXI,,,86 796 7139088,testingmainguyen+449@gmail.com,SHIELA,,
General,ORG0450,CNSHA,,GMA SHANGHAI BRANCH,3062 YANAN WEST ROAD,SHANGHAI,,,86 21 61031555,testingmainguyen+450@gmail.com,PATRICK LEE,,
General,ORG0451,HKHKG,,KID'S TOYS HK LTD,96 NATHAN ROAD,TSIMSHATSUI,,,852 23688985,testingmainguyen+451@gmail.com,CLIFF CHEUNG,,
General,ORG0452,AUSYD,,BRANDS AND MARKS PTY LIMITED,1 BOX ROAD,TAREN POINT,,,02 8960 9010,testingmainguyen+452@gmail.com,PAUL GRUNDY,,
General,ORG0453,,,BOOM SWEETS EOOD,UL. KOZANOVSKA 26,ASENOVGRAD,,,359 33124344,testingmainguyen+453@gmail.com,HANS BOOM,,
General,ORG0454,TWKHH,,K. L. AND LING INTERNATIONAL INC.,206 SEC 1 MIN SHENG ROAD,KAOHSIUNG TAIWAN,,,886 7 2265221,testingmainguyen+454@gmail.com,SOPHIA,,
General,ORG0455,CNNGB,,"NINGBO HUALEI TOOL CO., LTD.",EAST SECTION GUAN HAI WEI IND ZONE,CIXI ZHEJIANG,,,86 574 6366 8202,testingmainguyen+455@gmail.com,MEGAN FANG,,
General,ORG0456,BDDAC,,DURABLE PLASTIC LTD.,PRAN RFL CENTER,105 MIDDLE BADDA DHAKA,,,8802 988 1792,testingmainguyen+456@gmail.com,JOYANTA KUMAR ROY,,
General,ORG0457,TWTPE,,RITEK CORPORATION,42 KUAN-FU N. ROAD,HSIN-CHU INDUSTRIAL PARK,,,886 3 598 7298,testingmainguyen+457@gmail.com,EMILY KAO,,
